{
"type": "FeatureCollection",
"name": "trivandrum_hospitals",
"crs": { "type": "name", "properties": { "name": "urn:ogc:def:crs:OGC:1.3:CRS84" } },
"features": [
{ "type": "Feature", "properties": { "Name": "Vattiyoorakavu Family Health Centre", "description": "<!DOCTYPE html><html><head></head><body><script type=\"text/javascript\">window.location.href=\"https://www.google.com/earth/rpc/entity?lat=8.524867700000001&lng=76.99703635&fid=0x3b05ba0199d7a33d:0x205487497b214202&hl=en&gl=in&client=earth-client&cv=7.3.6.10441&useragent=GoogleEarth/7.3.6.10441(X11;Linux (6.17.0.0);en;kml:2.2;client:Pro;type:default)\";</script></body></html>", "timestamp": null, "begin": null, "end": null, "altitudeMode": null, "tessellate": -1, "extrude": 0, "visibility": -1, "drawOrder": null, "icon": null, "placepageUri": "https://www.google.com/earth/rpc/entity?lat=8.524867700000001&lng=76.99703635&fid=0x3b05ba0199d7a33d:0x205487497b214202&hl=en&gl=in&client=earth-client&cv=7.3.6.10441&useragent=GoogleEarth/7.3.6.10441(X11;Linux (6.17.0.0);en;kml:2.2;client:Pro;type:default)", "snippet": "G2G4+8F5, Vattiyoorkavu - Kulasekharam Road, Junction, Mannarakonam, Kerala 695013" }, "geometry": { "type": "Point", "coordinates": [ 77.0062459, 8.5257633, 0.0 ] } },
{ "type": "Feature", "properties": { "Name": "Urban Primary Health Center Vattiyoorkavu", "description": "<!DOCTYPE html><html><head></head><body><script type=\"text/javascript\">window.location.href=\"https://www.google.com/earth/rpc/entity?lat=8.524867700000001&lng=76.99703635&fid=0x3b05ba1f79117535:0xefc47d18aa7ebd6c&hl=en&gl=in&client=earth-client&cv=7.3.6.10441&useragent=GoogleEarth/7.3.6.10441(X11;Linux (6.17.0.0);en;kml:2.2;client:Pro;type:default)\";</script></body></html>", "timestamp": null, "begin": null, "end": null, "altitudeMode": null, "tessellate": -1, "extrude": 0, "visibility": -1, "drawOrder": null, "icon": null, "placepageUri": "https://www.google.com/earth/rpc/entity?lat=8.524867700000001&lng=76.99703635&fid=0x3b05ba1f79117535:0xefc47d18aa7ebd6c&hl=en&gl=in&client=earth-client&cv=7.3.6.10441&useragent=GoogleEarth/7.3.6.10441(X11;Linux (6.17.0.0);en;kml:2.2;client:Pro;type:default)", "snippet": "GXFQ+H4P, Vattiyoorkavu, Thiruvananthapuram, Kerala 695013" }, "geometry": { "type": "Point", "coordinates": [ 76.9878268, 8.5239721, 0.0 ] } },
{ "type": "Feature", "properties": { "Name": "CHENKAL FAMILY HEALTH CENTER", "description": "<!DOCTYPE html><html><head></head><body><script type=\"text/javascript\">window.location.href=\"https://www.google.com/earth/rpc/entity?lat=8.375531549999998&lng=77.1290598&fid=0x3b05ac1d0a7220ed:0xf59f9e6550a97ea1&hl=en&gl=in&client=earth-client&cv=7.3.6.10441&useragent=GoogleEarth/7.3.6.10441(X11;Linux (6.17.0.0);en;kml:2.2;client:Pro;type:default)\";</script></body></html>", "timestamp": null, "begin": null, "end": null, "altitudeMode": null, "tessellate": -1, "extrude": 0, "visibility": -1, "drawOrder": null, "icon": null, "placepageUri": "https://www.google.com/earth/rpc/entity?lat=8.375531549999998&lng=77.1290598&fid=0x3b05ac1d0a7220ed:0xf59f9e6550a97ea1&hl=en&gl=in&client=earth-client&cv=7.3.6.10441&useragent=GoogleEarth/7.3.6.10441(X11;Linux (6.17.0.0);en;kml:2.2;client:Pro;type:default)", "snippet": "94C3+XMF, Chenkal, Kerala 695132" }, "geometry": { "type": "Point", "coordinates": [ 77.1041724, 8.3724477, 0.0 ] } },
{ "type": "Feature", "properties": { "Name": "Primary Health Centre (PHC)", "description": "<!DOCTYPE html><html><head></head><body><script type=\"text/javascript\">window.location.href=\"https://www.google.com/earth/rpc/entity?lat=8.375531549999998&lng=77.1290598&fid=0x3b05ac8b88b0c517:0xf4a1643cb0678144&hl=en&gl=in&client=earth-client&cv=7.3.6.10441&useragent=GoogleEarth/7.3.6.10441(X11;Linux (6.17.0.0);en;kml:2.2;client:Pro;type:default)\";</script></body></html>", "timestamp": null, "begin": null, "end": null, "altitudeMode": null, "tessellate": -1, "extrude": 0, "visibility": -1, "drawOrder": null, "icon": null, "placepageUri": "https://www.google.com/earth/rpc/entity?lat=8.375531549999998&lng=77.1290598&fid=0x3b05ac8b88b0c517:0xf4a1643cb0678144&hl=en&gl=in&client=earth-client&cv=7.3.6.10441&useragent=GoogleEarth/7.3.6.10441(X11;Linux (6.17.0.0);en;kml:2.2;client:Pro;type:default)", "snippet": "95H3+CHW, Parasuvaikkal, Kerala 695508" }, "geometry": { "type": "Point", "coordinates": [ 77.1539472, 8.3786154, 0.0 ] } },
{ "type": "Feature", "properties": { "Name": "Primary Health Centre", "description": "<!DOCTYPE html><html><head></head><body><script type=\"text/javascript\">window.location.href=\"https://www.google.com/earth/rpc/entity?lat=8.726462949999998&lng=76.80206079999999&fid=0x3b05c84d3539032f:0xf840b346b16236ef&hl=en&gl=in&client=earth-client&cv=7.3.6.10441&useragent=GoogleEarth/7.3.6.10441(X11;Linux (6.17.0.0);en;kml:2.2;client:Pro;type:default)\";</script></body></html>", "timestamp": null, "begin": null, "end": null, "altitudeMode": null, "tessellate": -1, "extrude": 0, "visibility": -1, "drawOrder": null, "icon": null, "placepageUri": "https://www.google.com/earth/rpc/entity?lat=8.726462949999998&lng=76.80206079999999&fid=0x3b05c84d3539032f:0xf840b346b16236ef&hl=en&gl=in&client=earth-client&cv=7.3.6.10441&useragent=GoogleEarth/7.3.6.10441(X11;Linux (6.17.0.0);en;kml:2.2;client:Pro;type:default)", "snippet": "J3W4+CH2, Tholicode, Kerala 695541" }, "geometry": { "type": "Point", "coordinates": [ 77.0563875, 8.6460084, 0.0 ] } },
{ "type": "Feature", "properties": { "Name": "Primary Health Center", "description": "<!DOCTYPE html><html><head></head><body><script type=\"text/javascript\">window.location.href=\"https://www.google.com/earth/rpc/entity?lat=8.726462949999998&lng=76.80206079999999&fid=0x3b05c780deb0cdb3:0x30a9d1d52098d202&hl=en&gl=in&client=earth-client&cv=7.3.6.10441&useragent=GoogleEarth/7.3.6.10441(X11;Linux (6.17.0.0);en;kml:2.2;client:Pro;type:default)\";</script></body></html>", "timestamp": null, "begin": null, "end": null, "altitudeMode": null, "tessellate": -1, "extrude": 0, "visibility": -1, "drawOrder": null, "icon": null, "placepageUri": "https://www.google.com/earth/rpc/entity?lat=8.726462949999998&lng=76.80206079999999&fid=0x3b05c780deb0cdb3:0x30a9d1d52098d202&hl=en&gl=in&client=earth-client&cv=7.3.6.10441&useragent=GoogleEarth/7.3.6.10441(X11;Linux (6.17.0.0);en;kml:2.2;client:Pro;type:default)", "snippet": "JX79+RHP, Mukkola - Poovathur - Irinchayam Rd, Poovathoor, Kerala 695561" }, "geometry": { "type": "Point", "coordinates": [ 76.9689495, 8.6145947, 0.0 ] } },
{ "type": "Feature", "properties": { "Name": "Community Health Centre (PHC), Poovar", "description": "<!DOCTYPE html><html><head></head><body><script type=\"text/javascript\">window.location.href=\"https://www.google.com/earth/rpc/entity?lat=8.726462949999998&lng=76.80206079999999&fid=0x3b05a909aaaaaaab:0x7a1a1995fef27b2&hl=en&gl=in&client=earth-client&cv=7.3.6.10441&useragent=GoogleEarth/7.3.6.10441(X11;Linux (6.17.0.0);en;kml:2.2;client:Pro;type:default)\";</script></body></html>", "timestamp": null, "begin": null, "end": null, "altitudeMode": null, "tessellate": -1, "extrude": 0, "visibility": -1, "drawOrder": null, "icon": null, "placepageUri": "https://www.google.com/earth/rpc/entity?lat=8.726462949999998&lng=76.80206079999999&fid=0x3b05a909aaaaaaab:0x7a1a1995fef27b2&hl=en&gl=in&client=earth-client&cv=7.3.6.10441&useragent=GoogleEarth/7.3.6.10441(X11;Linux (6.17.0.0);en;kml:2.2;client:Pro;type:default)", "snippet": "83C8+Q56, Hospital road, Poovar, Kerala 695525" }, "geometry": { "type": "Point", "coordinates": [ 77.0654051, 8.3219002, 0.0 ] } },
{ "type": "Feature", "properties": { "Name": "Primary Health Center", "description": "<!DOCTYPE html><html><head></head><body><script type=\"text/javascript\">window.location.href=\"https://www.google.com/earth/rpc/entity?lat=8.726462949999998&lng=76.80206079999999&fid=0x3b05c780deb0cdb3:0x30a9d1d52098d202&hl=en&gl=in&client=earth-client&cv=7.3.6.10441&useragent=GoogleEarth/7.3.6.10441(X11;Linux (6.17.0.0);en;kml:2.2;client:Pro;type:default)\";</script></body></html>", "timestamp": null, "begin": null, "end": null, "altitudeMode": null, "tessellate": -1, "extrude": 0, "visibility": -1, "drawOrder": null, "icon": null, "placepageUri": "https://www.google.com/earth/rpc/entity?lat=8.726462949999998&lng=76.80206079999999&fid=0x3b05c780deb0cdb3:0x30a9d1d52098d202&hl=en&gl=in&client=earth-client&cv=7.3.6.10441&useragent=GoogleEarth/7.3.6.10441(X11;Linux (6.17.0.0);en;kml:2.2;client:Pro;type:default)", "snippet": "JX79+RHP, Mukkola - Poovathur - Irinchayam Rd, Poovathoor, Kerala 695561" }, "geometry": { "type": "Point", "coordinates": [ 76.9689495, 8.6145947, 0.0 ] } },
{ "type": "Feature", "properties": { "Name": "Primary health center", "description": "<!DOCTYPE html><html><head></head><body><script type=\"text/javascript\">window.location.href=\"https://www.google.com/earth/rpc/entity?lat=8.726462949999998&lng=76.80206079999999&fid=0x3b05bba57c7d5221:0x1f7022e65e67c878&hl=en&gl=in&client=earth-client&cv=7.3.6.10441&useragent=GoogleEarth/7.3.6.10441(X11;Linux (6.17.0.0);en;kml:2.2;client:Pro;type:default)\";</script></body></html>", "timestamp": null, "begin": null, "end": null, "altitudeMode": null, "tessellate": -1, "extrude": 0, "visibility": -1, "drawOrder": null, "icon": null, "placepageUri": "https://www.google.com/earth/rpc/entity?lat=8.726462949999998&lng=76.80206079999999&fid=0x3b05bba57c7d5221:0x1f7022e65e67c878&hl=en&gl=in&client=earth-client&cv=7.3.6.10441&useragent=GoogleEarth/7.3.6.10441(X11;Linux (6.17.0.0);en;kml:2.2;client:Pro;type:default)", "snippet": "FXMX+JMX, Society Rd, Trikkannapuram, Thiruvananthapuram, Kerala 695032" }, "geometry": { "type": "Point", "coordinates": [ 76.9992364, 8.4841001, 0.0 ] } },
{ "type": "Feature", "properties": { "Name": "Primary Health Center Thiruvallam", "description": "<!DOCTYPE html><html><head></head><body><script type=\"text/javascript\">window.location.href=\"https://www.google.com/earth/rpc/entity?lat=8.726462949999998&lng=76.80206079999999&fid=0x3b05bb60f4febd63:0x89fd9d07220d633f&hl=en&gl=in&client=earth-client&cv=7.3.6.10441&useragent=GoogleEarth/7.3.6.10441(X11;Linux (6.17.0.0);en;kml:2.2;client:Pro;type:default)\";</script></body></html>", "timestamp": null, "begin": null, "end": null, "altitudeMode": null, "tessellate": -1, "extrude": 0, "visibility": -1, "drawOrder": null, "icon": null, "placepageUri": "https://www.google.com/earth/rpc/entity?lat=8.726462949999998&lng=76.80206079999999&fid=0x3b05bb60f4febd63:0x89fd9d07220d633f&hl=en&gl=in&client=earth-client&cv=7.3.6.10441&useragent=GoogleEarth/7.3.6.10441(X11;Linux (6.17.0.0);en;kml:2.2;client:Pro;type:default)", "snippet": "CXR4+HWV, jn, Thiruvallam, Thiruvananthapuram, Kerala 695027" }, "geometry": { "type": "Point", "coordinates": [ 76.957304, 8.4414985, 0.0 ] } },
{ "type": "Feature", "properties": { "Name": "Nanthancode Urban Primary Health Centre", "description": "<!DOCTYPE html><html><head></head><body><script type=\"text/javascript\">window.location.href=\"https://www.google.com/earth/rpc/entity?lat=8.726462949999998&lng=76.80206079999999&fid=0x3b05bbd00858729d:0x51d9d84fed5ec598&hl=en&gl=in&client=earth-client&cv=7.3.6.10441&useragent=GoogleEarth/7.3.6.10441(X11;Linux (6.17.0.0);en;kml:2.2;client:Pro;type:default)\";</script></body></html>", "timestamp": null, "begin": null, "end": null, "altitudeMode": null, "tessellate": -1, "extrude": 0, "visibility": -1, "drawOrder": null, "icon": null, "placepageUri": "https://www.google.com/earth/rpc/entity?lat=8.726462949999998&lng=76.80206079999999&fid=0x3b05bbd00858729d:0x51d9d84fed5ec598&hl=en&gl=in&client=earth-client&cv=7.3.6.10441&useragent=GoogleEarth/7.3.6.10441(X11;Linux (6.17.0.0);en;kml:2.2;client:Pro;type:default)", "snippet": "GX83+75G, Nanthancodu, Thiruvananthapuram, Kerala 695003" }, "geometry": { "type": "Point", "coordinates": [ 76.9529609, 8.5156966, 0.0 ] } },
{ "type": "Feature", "properties": { "Name": "Vamanapuram Block Primary Health Centre", "description": "<!DOCTYPE html><html><head></head><body><script type=\"text/javascript\">window.location.href=\"https://www.google.com/earth/rpc/entity?lat=8.71558305&lng=76.89858075&fid=0x3b05c3eb04d2bd47:0xf7838b65404d0541&hl=en&gl=in&client=earth-client&cv=7.3.6.10441&useragent=GoogleEarth/7.3.6.10441(X11;Linux (6.17.0.0);en;kml:2.2;client:Pro;type:default)\";</script></body></html>", "timestamp": null, "begin": null, "end": null, "altitudeMode": null, "tessellate": -1, "extrude": 0, "visibility": -1, "drawOrder": null, "icon": null, "placepageUri": "https://www.google.com/earth/rpc/entity?lat=8.71558305&lng=76.89858075&fid=0x3b05c3eb04d2bd47:0xf7838b65404d0541&hl=en&gl=in&client=earth-client&cv=7.3.6.10441&useragent=GoogleEarth/7.3.6.10441(X11;Linux (6.17.0.0);en;kml:2.2;client:Pro;type:default)", "snippet": "PV8X+784, SH 1, Vamanapuram, Nellanad, Kerala 695606" }, "geometry": { "type": "Point", "coordinates": [ 76.898342, 8.7156441, 0.0 ] } },
{ "type": "Feature", "properties": { "Name": "Government Hospital Vamanapuram", "description": "<!DOCTYPE html><html><head></head><body><script type=\"text/javascript\">window.location.href=\"https://www.google.com/earth/rpc/entity?lat=8.71558305&lng=76.89858075&fid=0x3b05c3eb1089c29d:0x4e54841cbffd76c8&hl=en&gl=in&client=earth-client&cv=7.3.6.10441&useragent=GoogleEarth/7.3.6.10441(X11;Linux (6.17.0.0);en;kml:2.2;client:Pro;type:default)\";</script></body></html>", "timestamp": null, "begin": null, "end": null, "altitudeMode": null, "tessellate": -1, "extrude": 0, "visibility": -1, "drawOrder": null, "icon": null, "placepageUri": "https://www.google.com/earth/rpc/entity?lat=8.71558305&lng=76.89858075&fid=0x3b05c3eb1089c29d:0x4e54841cbffd76c8&hl=en&gl=in&client=earth-client&cv=7.3.6.10441&useragent=GoogleEarth/7.3.6.10441(X11;Linux (6.17.0.0);en;kml:2.2;client:Pro;type:default)", "snippet": "PV8X+6G4, Hospital Rd, Vamanapuram, Nellanad, Kerala 695606" }, "geometry": { "type": "Point", "coordinates": [ 76.8988195, 8.715522, 0.0 ] } },
{ "type": "Feature", "properties": { "Name": "Urban Primary Health Center Vattiyoorkavu", "description": "<!DOCTYPE html><html><head></head><body><script type=\"text/javascript\">window.location.href=\"https://www.google.com/earth/rpc/entity?lat=8.524867700000001&lng=76.99703635&fid=0x3b05ba1f79117535:0xefc47d18aa7ebd6c&hl=en&gl=in&client=earth-client&cv=7.3.6.10441&useragent=GoogleEarth/7.3.6.10441(X11;Linux (6.17.0.0);en;kml:2.2;client:Pro;type:default)\";</script></body></html>", "timestamp": null, "begin": null, "end": null, "altitudeMode": null, "tessellate": -1, "extrude": 0, "visibility": -1, "drawOrder": null, "icon": null, "placepageUri": "https://www.google.com/earth/rpc/entity?lat=8.524867700000001&lng=76.99703635&fid=0x3b05ba1f79117535:0xefc47d18aa7ebd6c&hl=en&gl=in&client=earth-client&cv=7.3.6.10441&useragent=GoogleEarth/7.3.6.10441(X11;Linux (6.17.0.0);en;kml:2.2;client:Pro;type:default)", "snippet": "GXFQ+H4P, Vattiyoorkavu, Thiruvananthapuram, Kerala 695013" }, "geometry": { "type": "Point", "coordinates": [ 76.9878268, 8.5239721, 0.0 ] } },
{ "type": "Feature", "properties": { "Name": "Vattiyoorakavu Family Health Centre", "description": "<!DOCTYPE html><html><head></head><body><script type=\"text/javascript\">window.location.href=\"https://www.google.com/earth/rpc/entity?lat=8.524867700000001&lng=76.99703635&fid=0x3b05ba0199d7a33d:0x205487497b214202&hl=en&gl=in&client=earth-client&cv=7.3.6.10441&useragent=GoogleEarth/7.3.6.10441(X11;Linux (6.17.0.0);en;kml:2.2;client:Pro;type:default)\";</script></body></html>", "timestamp": null, "begin": null, "end": null, "altitudeMode": null, "tessellate": -1, "extrude": 0, "visibility": -1, "drawOrder": null, "icon": null, "placepageUri": "https://www.google.com/earth/rpc/entity?lat=8.524867700000001&lng=76.99703635&fid=0x3b05ba0199d7a33d:0x205487497b214202&hl=en&gl=in&client=earth-client&cv=7.3.6.10441&useragent=GoogleEarth/7.3.6.10441(X11;Linux (6.17.0.0);en;kml:2.2;client:Pro;type:default)", "snippet": "G2G4+8F5, Vattiyoorkavu - Kulasekharam Road, Junction, Mannarakonam, Kerala 695013" }, "geometry": { "type": "Point", "coordinates": [ 77.0062459, 8.5257633, 0.0 ] } },
{ "type": "Feature", "properties": { "Name": "Community Health Centre", "description": "<!DOCTYPE html><html><head></head><body><script type=\"text/javascript\">window.location.href=\"https://www.google.com/earth/rpc/entity?lat=8.66258485&lng=76.7643327&fid=0x3b05ebbbeaf76f33:0x90209113cf1e10c1&hl=en&gl=in&client=earth-client&cv=7.3.6.10441&useragent=GoogleEarth/7.3.6.10441(X11;Linux (6.17.0.0);en;kml:2.2;client:Pro;type:default)\";</script></body></html>", "timestamp": null, "begin": null, "end": null, "altitudeMode": null, "tessellate": -1, "extrude": 0, "visibility": -1, "drawOrder": null, "icon": null, "placepageUri": "https://www.google.com/earth/rpc/entity?lat=8.66258485&lng=76.7643327&fid=0x3b05ebbbeaf76f33:0x90209113cf1e10c1&hl=en&gl=in&client=earth-client&cv=7.3.6.10441&useragent=GoogleEarth/7.3.6.10441(X11;Linux (6.17.0.0);en;kml:2.2;client:Pro;type:default)", "snippet": "MQ77+6G8, Chilakkoor - Vallakkadavu Rd, Anchuthengu, Kerala 695309" }, "geometry": { "type": "Point", "coordinates": [ 76.7638179, 8.6630348, 0.0 ] } },
{ "type": "Feature", "properties": { "Name": "Anchuthengu Health Centre", "description": "<!DOCTYPE html><html><head></head><body><script type=\"text/javascript\">window.location.href=\"https://www.google.com/earth/rpc/entity?lat=8.66258485&lng=76.7643327&fid=0x3b05ebbbafb3475b:0x8cb20aa4a33fef59&hl=en&gl=in&client=earth-client&cv=7.3.6.10441&useragent=GoogleEarth/7.3.6.10441(X11;Linux (6.17.0.0);en;kml:2.2;client:Pro;type:default)\";</script></body></html>", "timestamp": null, "begin": null, "end": null, "altitudeMode": null, "tessellate": -1, "extrude": 0, "visibility": -1, "drawOrder": null, "icon": null, "placepageUri": "https://www.google.com/earth/rpc/entity?lat=8.66258485&lng=76.7643327&fid=0x3b05ebbbafb3475b:0x8cb20aa4a33fef59&hl=en&gl=in&client=earth-client&cv=7.3.6.10441&useragent=GoogleEarth/7.3.6.10441(X11;Linux (6.17.0.0);en;kml:2.2;client:Pro;type:default)", "snippet": "Anchuthengu, Kerala 695309" }, "geometry": { "type": "Point", "coordinates": [ 76.7648475, 8.6621349, 0.0 ] } },
{ "type": "Feature", "properties": { "Name": "Kallara Govt. Hospital", "description": "<!DOCTYPE html><html><head></head><body><script type=\"text/javascript\">window.location.href=\"https://www.google.com/earth/rpc/entity?lat=8.75226955&lng=76.92957429999998&fid=0x3b05c48b1a9fcd4f:0x6f693d5984a66f23&hl=en&gl=in&client=earth-client&cv=7.3.6.10441&useragent=GoogleEarth/7.3.6.10441(X11;Linux (6.17.0.0);en;kml:2.2;client:Pro;type:default)\";</script></body></html>", "timestamp": null, "begin": null, "end": null, "altitudeMode": null, "tessellate": -1, "extrude": 0, "visibility": -1, "drawOrder": null, "icon": null, "placepageUri": "https://www.google.com/earth/rpc/entity?lat=8.75226955&lng=76.92957429999998&fid=0x3b05c48b1a9fcd4f:0x6f693d5984a66f23&hl=en&gl=in&client=earth-client&cv=7.3.6.10441&useragent=GoogleEarth/7.3.6.10441(X11;Linux (6.17.0.0);en;kml:2.2;client:Pro;type:default)", "snippet": "Tharatta, Kallara, Kerala 695608" }, "geometry": { "type": "Point", "coordinates": [ 76.9392004, 8.7436807, 0.0 ] } },
{ "type": "Feature", "properties": { "Name": "Public Health Centre", "description": "<!DOCTYPE html><html><head></head><body><script type=\"text/javascript\">window.location.href=\"https://www.google.com/earth/rpc/entity?lat=8.75226955&lng=76.92957429999998&fid=0x3b05c49f8c06f9e5:0x61e7f6f5e07eb271&hl=en&gl=in&client=earth-client&cv=7.3.6.10441&useragent=GoogleEarth/7.3.6.10441(X11;Linux (6.17.0.0);en;kml:2.2;client:Pro;type:default)\";</script></body></html>", "timestamp": null, "begin": null, "end": null, "altitudeMode": null, "tessellate": -1, "extrude": 0, "visibility": -1, "drawOrder": null, "icon": null, "placepageUri": "https://www.google.com/earth/rpc/entity?lat=8.75226955&lng=76.92957429999998&fid=0x3b05c49f8c06f9e5:0x61e7f6f5e07eb271&hl=en&gl=in&client=earth-client&cv=7.3.6.10441&useragent=GoogleEarth/7.3.6.10441(X11;Linux (6.17.0.0);en;kml:2.2;client:Pro;type:default)", "snippet": "QW69+8XW, Kattumpuram, Kallara, Kerala 695612" }, "geometry": { "type": "Point", "coordinates": [ 76.9199482, 8.7608584, 0.0 ] } },
{ "type": "Feature", "properties": { "Name": "Kattakkada Government Hospital", "description": "<!DOCTYPE html><html><head></head><body><script type=\"text/javascript\">window.location.href=\"https://www.google.com/earth/rpc/entity?lat=8.631&lng=76.9373&fid=0x3b05b169c8c3463d:0x4f902e1a75f345c0&hl=en&gl=in&client=earth-client&cv=7.3.6.10441&useragent=GoogleEarth/7.3.6.10441(X11;Linux (6.17.0.0);en;kml:2.2;client:Pro;type:default)\";</script></body></html>", "timestamp": null, "begin": null, "end": null, "altitudeMode": null, "tessellate": -1, "extrude": 0, "visibility": -1, "drawOrder": null, "icon": null, "placepageUri": "https://www.google.com/earth/rpc/entity?lat=8.631&lng=76.9373&fid=0x3b05b169c8c3463d:0x4f902e1a75f345c0&hl=en&gl=in&client=earth-client&cv=7.3.6.10441&useragent=GoogleEarth/7.3.6.10441(X11;Linux (6.17.0.0);en;kml:2.2;client:Pro;type:default)", "snippet": "G35Q+322, Thiruvananthapuram - Neyyar Dam Rd, Kattakkada, Kerala 695572" }, "geometry": { "type": "Point", "coordinates": [ 77.0875159, 8.5076282, 0.0 ] } },
{ "type": "Feature", "properties": { "Name": "Government Community Health Center, Vilappil", "description": "<!DOCTYPE html><html><head></head><body><script type=\"text/javascript\">window.location.href=\"https://www.google.com/earth/rpc/entity?lat=8.631&lng=76.9373&fid=0x3b05b0cf66637187:0x9592cf06256cd1df&hl=en&gl=in&client=earth-client&cv=7.3.6.10441&useragent=GoogleEarth/7.3.6.10441(X11;Linux (6.17.0.0);en;kml:2.2;client:Pro;type:default)\";</script></body></html>", "timestamp": null, "begin": null, "end": null, "altitudeMode": null, "tessellate": -1, "extrude": 0, "visibility": -1, "drawOrder": null, "icon": null, "placepageUri": "https://www.google.com/earth/rpc/entity?lat=8.631&lng=76.9373&fid=0x3b05b0cf66637187:0x9592cf06256cd1df&hl=en&gl=in&client=earth-client&cv=7.3.6.10441&useragent=GoogleEarth/7.3.6.10441(X11;Linux (6.17.0.0);en;kml:2.2;client:Pro;type:default)", "snippet": "G29R+997, Vilappilsala, Kerala 695573" }, "geometry": { "type": "Point", "coordinates": [ 77.0409206, 8.5184007, 0.0 ] } },
{ "type": "Feature", "properties": { "Name": "Community Health Centre, Perumkadavila", "description": "<!DOCTYPE html><html><head></head><body><script type=\"text/javascript\">window.location.href=\"https://www.google.com/earth/rpc/entity?lat=8.631&lng=76.9373&fid=0x3b05adf89aa72dd9:0x3df33fb31f71ebbc&hl=en&gl=in&client=earth-client&cv=7.3.6.10441&useragent=GoogleEarth/7.3.6.10441(X11;Linux (6.17.0.0);en;kml:2.2;client:Pro;type:default)\";</script></body></html>", "timestamp": null, "begin": null, "end": null, "altitudeMode": null, "tessellate": -1, "extrude": 0, "visibility": -1, "drawOrder": null, "icon": null, "placepageUri": "https://www.google.com/earth/rpc/entity?lat=8.631&lng=76.9373&fid=0x3b05adf89aa72dd9:0x3df33fb31f71ebbc&hl=en&gl=in&client=earth-client&cv=7.3.6.10441&useragent=GoogleEarth/7.3.6.10441(X11;Linux (6.17.0.0);en;kml:2.2;client:Pro;type:default)", "snippet": "C4V6+P43, Amaravila Ottasekharamangalam Rd, Perumkadavila, Kerala 695124" }, "geometry": { "type": "Point", "coordinates": [ 77.1103123, 8.4442686, 0.0 ] } },
{ "type": "Feature", "properties": { "Name": "Community Health Centre, Vellarada", "description": "<!DOCTYPE html><html><head></head><body><script type=\"text/javascript\">window.location.href=\"https://www.google.com/earth/rpc/entity?lat=8.631&lng=76.9373&fid=0x3b044d5495ad2385:0xd12b7eaac5eb7bd1&hl=en&gl=in&client=earth-client&cv=7.3.6.10441&useragent=GoogleEarth/7.3.6.10441(X11;Linux (6.17.0.0);en;kml:2.2;client:Pro;type:default)\";</script></body></html>", "timestamp": null, "begin": null, "end": null, "altitudeMode": null, "tessellate": -1, "extrude": 0, "visibility": -1, "drawOrder": null, "icon": null, "placepageUri": "https://www.google.com/earth/rpc/entity?lat=8.631&lng=76.9373&fid=0x3b044d5495ad2385:0xd12b7eaac5eb7bd1&hl=en&gl=in&client=earth-client&cv=7.3.6.10441&useragent=GoogleEarth/7.3.6.10441(X11;Linux (6.17.0.0);en;kml:2.2;client:Pro;type:default)", "snippet": "F52V+XQX, Vellarada, Kerala 695505" }, "geometry": { "type": "Point", "coordinates": [ 77.1944708, 8.4524767, 0.0 ] } },
{ "type": "Feature", "properties": { "Name": "Community Health Centre Vellanad", "description": "<!DOCTYPE html><html><head></head><body><script type=\"text/javascript\">window.location.href=\"https://www.google.com/earth/rpc/entity?lat=8.631&lng=76.9373&fid=0x3b05b702ce607f8d:0x43284604301bd680&hl=en&gl=in&client=earth-client&cv=7.3.6.10441&useragent=GoogleEarth/7.3.6.10441(X11;Linux (6.17.0.0);en;kml:2.2;client:Pro;type:default)\";</script></body></html>", "timestamp": null, "begin": null, "end": null, "altitudeMode": null, "tessellate": -1, "extrude": 0, "visibility": -1, "drawOrder": null, "icon": null, "placepageUri": "https://www.google.com/earth/rpc/entity?lat=8.631&lng=76.9373&fid=0x3b05b702ce607f8d:0x43284604301bd680&hl=en&gl=in&client=earth-client&cv=7.3.6.10441&useragent=GoogleEarth/7.3.6.10441(X11;Linux (6.17.0.0);en;kml:2.2;client:Pro;type:default)", "snippet": "H352+WW, Vellanad, Kerala 695543" }, "geometry": { "type": "Point", "coordinates": [ 77.0541718, 8.561322, 0.0 ] } },
{ "type": "Feature", "properties": { "Name": "Community Health Centre, Kesavapuram", "description": "<!DOCTYPE html><html><head></head><body><script type=\"text/javascript\">window.location.href=\"https://www.google.com/earth/rpc/entity?lat=8.631&lng=76.9373&fid=0x3b05c2c20b833593:0x3479ed48154e14d2&hl=en&gl=in&client=earth-client&cv=7.3.6.10441&useragent=GoogleEarth/7.3.6.10441(X11;Linux (6.17.0.0);en;kml:2.2;client:Pro;type:default)\";</script></body></html>", "timestamp": null, "begin": null, "end": null, "altitudeMode": null, "tessellate": -1, "extrude": 0, "visibility": -1, "drawOrder": null, "icon": null, "placepageUri": "https://www.google.com/earth/rpc/entity?lat=8.631&lng=76.9373&fid=0x3b05c2c20b833593:0x3479ed48154e14d2&hl=en&gl=in&client=earth-client&cv=7.3.6.10441&useragent=GoogleEarth/7.3.6.10441(X11;Linux (6.17.0.0);en;kml:2.2;client:Pro;type:default)", "snippet": "CHC, post, Maruthamkuzy, kesavapuram, Kilimanoor, Vellalloor, Kerala 695601" }, "geometry": { "type": "Point", "coordinates": [ 76.8556986, 8.7592705, 0.0 ] } },
{ "type": "Feature", "properties": { "Name": "Iranimuttom CHC", "description": "<!DOCTYPE html><html><head></head><body><script type=\"text/javascript\">window.location.href=\"https://www.google.com/earth/rpc/entity?lat=8.631&lng=76.9373&fid=0x3b05bb1e9ece8bff:0x15f01e96cc547ae7&hl=en&gl=in&client=earth-client&cv=7.3.6.10441&useragent=GoogleEarth/7.3.6.10441(X11;Linux (6.17.0.0);en;kml:2.2;client:Pro;type:default)\";</script></body></html>", "timestamp": null, "begin": null, "end": null, "altitudeMode": null, "tessellate": -1, "extrude": 0, "visibility": -1, "drawOrder": null, "icon": null, "placepageUri": "https://www.google.com/earth/rpc/entity?lat=8.631&lng=76.9373&fid=0x3b05bb1e9ece8bff:0x15f01e96cc547ae7&hl=en&gl=in&client=earth-client&cv=7.3.6.10441&useragent=GoogleEarth/7.3.6.10441(X11;Linux (6.17.0.0);en;kml:2.2;client:Pro;type:default)", "snippet": "FX85+J56, Chiramukku, Thiruvananthapuram, Kerala 695009" }, "geometry": { "type": "Point", "coordinates": [ 76.9578851, 8.4665325, 0.0 ] } },
{ "type": "Feature", "properties": { "Name": "Community Health Center", "description": "<!DOCTYPE html><html><head></head><body><script type=\"text/javascript\">window.location.href=\"https://www.google.com/earth/rpc/entity?lat=8.631&lng=76.9373&fid=0x3b05c740eb1ae55d:0xf8e47c840ae2efb9&hl=en&gl=in&client=earth-client&cv=7.3.6.10441&useragent=GoogleEarth/7.3.6.10441(X11;Linux (6.17.0.0);en;kml:2.2;client:Pro;type:default)\";</script></body></html>", "timestamp": null, "begin": null, "end": null, "altitudeMode": null, "tessellate": -1, "extrude": 0, "visibility": -1, "drawOrder": null, "icon": null, "placepageUri": "https://www.google.com/earth/rpc/entity?lat=8.631&lng=76.9373&fid=0x3b05c740eb1ae55d:0xf8e47c840ae2efb9&hl=en&gl=in&client=earth-client&cv=7.3.6.10441&useragent=GoogleEarth/7.3.6.10441(X11;Linux (6.17.0.0);en;kml:2.2;client:Pro;type:default)", "snippet": "Kanyakulangara, Kerala 695615" }, "geometry": { "type": "Point", "coordinates": [ 76.9372564, 8.6309967, 0.0 ] } },
{ "type": "Feature", "properties": { "Name": "Venpakal Government Hospital", "description": "<!DOCTYPE html><html><head></head><body><script type=\"text/javascript\">window.location.href=\"https://www.google.com/earth/rpc/entity?lat=8.631&lng=76.9373&fid=0x3b05aee66c658e95:0x33810209f61ec283&hl=en&gl=in&client=earth-client&cv=7.3.6.10441&useragent=GoogleEarth/7.3.6.10441(X11;Linux (6.17.0.0);en;kml:2.2;client:Pro;type:default)\";</script></body></html>", "timestamp": null, "begin": null, "end": null, "altitudeMode": null, "tessellate": -1, "extrude": 0, "visibility": -1, "drawOrder": null, "icon": null, "placepageUri": "https://www.google.com/earth/rpc/entity?lat=8.631&lng=76.9373&fid=0x3b05aee66c658e95:0x33810209f61ec283&hl=en&gl=in&client=earth-client&cv=7.3.6.10441&useragent=GoogleEarth/7.3.6.10441(X11;Linux (6.17.0.0);en;kml:2.2;client:Pro;type:default)", "snippet": "93M8+CGM, Avanakuzhi-Kamukincodu Rd, Thiruvananthapuram, Athiyannur, Kerala 695123" }, "geometry": { "type": "Point", "coordinates": [ 77.0662969, 8.3835948, 0.0 ] } },
{ "type": "Feature", "properties": { "Name": "Community Health Centre, Aryanad", "description": "<!DOCTYPE html><html><head></head><body><script type=\"text/javascript\">window.location.href=\"https://www.google.com/earth/rpc/entity?lat=8.631&lng=76.9373&fid=0x3b05b6643bbc61f7:0xe37c2cc6ce4317ad&hl=en&gl=in&client=earth-client&cv=7.3.6.10441&useragent=GoogleEarth/7.3.6.10441(X11;Linux (6.17.0.0);en;kml:2.2;client:Pro;type:default)\";</script></body></html>", "timestamp": null, "begin": null, "end": null, "altitudeMode": null, "tessellate": -1, "extrude": 0, "visibility": -1, "drawOrder": null, "icon": null, "placepageUri": "https://www.google.com/earth/rpc/entity?lat=8.631&lng=76.9373&fid=0x3b05b6643bbc61f7:0xe37c2cc6ce4317ad&hl=en&gl=in&client=earth-client&cv=7.3.6.10441&useragent=GoogleEarth/7.3.6.10441(X11;Linux (6.17.0.0);en;kml:2.2;client:Pro;type:default)", "snippet": "H3JP+3F5, Cherukulam, Aryanad, Kerala 695542" }, "geometry": { "type": "Point", "coordinates": [ 77.0862311, 8.580138, 0.0 ] } },
{ "type": "Feature", "properties": { "Name": "Taluk Headquarters hospital, Malayinkeezhu", "description": "<!DOCTYPE html><html><head></head><body><script type=\"text/javascript\">window.location.href=\"https://www.google.com/earth/rpc/entity?lat=8.75927&lng=76.8557&fid=0x3b05b05737d04ab5:0x2ab7cd40335bcb84&hl=en&gl=in&client=earth-client&cv=7.3.6.10441&useragent=GoogleEarth/7.3.6.10441(X11;Linux (6.17.0.0);en;kml:2.2;client:Pro;type:default)\";</script></body></html>", "timestamp": null, "begin": null, "end": null, "altitudeMode": null, "tessellate": -1, "extrude": 0, "visibility": -1, "drawOrder": null, "icon": null, "placepageUri": "https://www.google.com/earth/rpc/entity?lat=8.75927&lng=76.8557&fid=0x3b05b05737d04ab5:0x2ab7cd40335bcb84&hl=en&gl=in&client=earth-client&cv=7.3.6.10441&useragent=GoogleEarth/7.3.6.10441(X11;Linux (6.17.0.0);en;kml:2.2;client:Pro;type:default)", "snippet": "Pongummoodu Rd, Malayinkeezh, Kerala 695571" }, "geometry": { "type": "Point", "coordinates": [ 77.0450105, 8.4831924, 0.0 ] } },
{ "type": "Feature", "properties": { "Name": "Government Community Health Center, Vilappil", "description": "<!DOCTYPE html><html><head></head><body><script type=\"text/javascript\">window.location.href=\"https://www.google.com/earth/rpc/entity?lat=8.75927&lng=76.8557&fid=0x3b05b0cf66637187:0x9592cf06256cd1df&hl=en&gl=in&client=earth-client&cv=7.3.6.10441&useragent=GoogleEarth/7.3.6.10441(X11;Linux (6.17.0.0);en;kml:2.2;client:Pro;type:default)\";</script></body></html>", "timestamp": null, "begin": null, "end": null, "altitudeMode": null, "tessellate": -1, "extrude": 0, "visibility": -1, "drawOrder": null, "icon": null, "placepageUri": "https://www.google.com/earth/rpc/entity?lat=8.75927&lng=76.8557&fid=0x3b05b0cf66637187:0x9592cf06256cd1df&hl=en&gl=in&client=earth-client&cv=7.3.6.10441&useragent=GoogleEarth/7.3.6.10441(X11;Linux (6.17.0.0);en;kml:2.2;client:Pro;type:default)", "snippet": "G29R+997, Vilappilsala, Kerala 695573" }, "geometry": { "type": "Point", "coordinates": [ 77.0409206, 8.5184007, 0.0 ] } },
{ "type": "Feature", "properties": { "Name": "Government Homeo Hospital Machel", "description": "<!DOCTYPE html><html><head></head><body><script type=\"text/javascript\">window.location.href=\"https://www.google.com/earth/rpc/entity?lat=8.75927&lng=76.8557&fid=0x3b05b067188f0703:0x3336bdb4b2cfe662&hl=en&gl=in&client=earth-client&cv=7.3.6.10441&useragent=GoogleEarth/7.3.6.10441(X11;Linux (6.17.0.0);en;kml:2.2;client:Pro;type:default)\";</script></body></html>", "timestamp": null, "begin": null, "end": null, "altitudeMode": null, "tessellate": -1, "extrude": 0, "visibility": -1, "drawOrder": null, "icon": null, "placepageUri": "https://www.google.com/earth/rpc/entity?lat=8.75927&lng=76.8557&fid=0x3b05b067188f0703:0x3336bdb4b2cfe662&hl=en&gl=in&client=earth-client&cv=7.3.6.10441&useragent=GoogleEarth/7.3.6.10441(X11;Linux (6.17.0.0);en;kml:2.2;client:Pro;type:default)", "snippet": "Koviluvila, Bus Stop, Machel Kovilvila Rd, Malayinkeezh, Vilavoorkal, Kerala 695570" }, "geometry": { "type": "Point", "coordinates": [ 77.0310457, 8.4785612, 0.0 ] } },
{ "type": "Feature", "properties": { "Name": "Community Health Centre", "description": "<!DOCTYPE html><html><head></head><body><script type=\"text/javascript\">window.location.href=\"https://www.google.com/earth/rpc/entity?lat=8.75927&lng=76.8557&fid=0x3b05ebbbeaf76f33:0x90209113cf1e10c1&hl=en&gl=in&client=earth-client&cv=7.3.6.10441&useragent=GoogleEarth/7.3.6.10441(X11;Linux (6.17.0.0);en;kml:2.2;client:Pro;type:default)\";</script></body></html>", "timestamp": null, "begin": null, "end": null, "altitudeMode": null, "tessellate": -1, "extrude": 0, "visibility": -1, "drawOrder": null, "icon": null, "placepageUri": "https://www.google.com/earth/rpc/entity?lat=8.75927&lng=76.8557&fid=0x3b05ebbbeaf76f33:0x90209113cf1e10c1&hl=en&gl=in&client=earth-client&cv=7.3.6.10441&useragent=GoogleEarth/7.3.6.10441(X11;Linux (6.17.0.0);en;kml:2.2;client:Pro;type:default)", "snippet": "MQ77+6G8, Chilakkoor - Vallakkadavu Rd, Anchuthengu, Kerala 695309" }, "geometry": { "type": "Point", "coordinates": [ 76.7638179, 8.6630348, 0.0 ] } },
{ "type": "Feature", "properties": { "Name": "Community Health Centre, Perumkadavila", "description": "<!DOCTYPE html><html><head></head><body><script type=\"text/javascript\">window.location.href=\"https://www.google.com/earth/rpc/entity?lat=8.75927&lng=76.8557&fid=0x3b05adf89aa72dd9:0x3df33fb31f71ebbc&hl=en&gl=in&client=earth-client&cv=7.3.6.10441&useragent=GoogleEarth/7.3.6.10441(X11;Linux (6.17.0.0);en;kml:2.2;client:Pro;type:default)\";</script></body></html>", "timestamp": null, "begin": null, "end": null, "altitudeMode": null, "tessellate": -1, "extrude": 0, "visibility": -1, "drawOrder": null, "icon": null, "placepageUri": "https://www.google.com/earth/rpc/entity?lat=8.75927&lng=76.8557&fid=0x3b05adf89aa72dd9:0x3df33fb31f71ebbc&hl=en&gl=in&client=earth-client&cv=7.3.6.10441&useragent=GoogleEarth/7.3.6.10441(X11;Linux (6.17.0.0);en;kml:2.2;client:Pro;type:default)", "snippet": "C4V6+P43, Amaravila Ottasekharamangalam Rd, Perumkadavila, Kerala 695124" }, "geometry": { "type": "Point", "coordinates": [ 77.1103123, 8.4442686, 0.0 ] } },
{ "type": "Feature", "properties": { "Name": "Iranimuttom CHC", "description": "<!DOCTYPE html><html><head></head><body><script type=\"text/javascript\">window.location.href=\"https://www.google.com/earth/rpc/entity?lat=8.75927&lng=76.8557&fid=0x3b05bb1e9ece8bff:0x15f01e96cc547ae7&hl=en&gl=in&client=earth-client&cv=7.3.6.10441&useragent=GoogleEarth/7.3.6.10441(X11;Linux (6.17.0.0);en;kml:2.2;client:Pro;type:default)\";</script></body></html>", "timestamp": null, "begin": null, "end": null, "altitudeMode": null, "tessellate": -1, "extrude": 0, "visibility": -1, "drawOrder": null, "icon": null, "placepageUri": "https://www.google.com/earth/rpc/entity?lat=8.75927&lng=76.8557&fid=0x3b05bb1e9ece8bff:0x15f01e96cc547ae7&hl=en&gl=in&client=earth-client&cv=7.3.6.10441&useragent=GoogleEarth/7.3.6.10441(X11;Linux (6.17.0.0);en;kml:2.2;client:Pro;type:default)", "snippet": "FX85+J56, Chiramukku, Thiruvananthapuram, Kerala 695009" }, "geometry": { "type": "Point", "coordinates": [ 76.9578851, 8.4665325, 0.0 ] } },
{ "type": "Feature", "properties": { "Name": "Community Health Center", "description": "<!DOCTYPE html><html><head></head><body><script type=\"text/javascript\">window.location.href=\"https://www.google.com/earth/rpc/entity?lat=8.75927&lng=76.8557&fid=0x3b05c740eb1ae55d:0xf8e47c840ae2efb9&hl=en&gl=in&client=earth-client&cv=7.3.6.10441&useragent=GoogleEarth/7.3.6.10441(X11;Linux (6.17.0.0);en;kml:2.2;client:Pro;type:default)\";</script></body></html>", "timestamp": null, "begin": null, "end": null, "altitudeMode": null, "tessellate": -1, "extrude": 0, "visibility": -1, "drawOrder": null, "icon": null, "placepageUri": "https://www.google.com/earth/rpc/entity?lat=8.75927&lng=76.8557&fid=0x3b05c740eb1ae55d:0xf8e47c840ae2efb9&hl=en&gl=in&client=earth-client&cv=7.3.6.10441&useragent=GoogleEarth/7.3.6.10441(X11;Linux (6.17.0.0);en;kml:2.2;client:Pro;type:default)", "snippet": "Kanyakulangara, Kerala 695615" }, "geometry": { "type": "Point", "coordinates": [ 76.9372564, 8.6309967, 0.0 ] } },
{ "type": "Feature", "properties": { "Name": "Venpakal Government Hospital", "description": "<!DOCTYPE html><html><head></head><body><script type=\"text/javascript\">window.location.href=\"https://www.google.com/earth/rpc/entity?lat=8.75927&lng=76.8557&fid=0x3b05aee66c658e95:0x33810209f61ec283&hl=en&gl=in&client=earth-client&cv=7.3.6.10441&useragent=GoogleEarth/7.3.6.10441(X11;Linux (6.17.0.0);en;kml:2.2;client:Pro;type:default)\";</script></body></html>", "timestamp": null, "begin": null, "end": null, "altitudeMode": null, "tessellate": -1, "extrude": 0, "visibility": -1, "drawOrder": null, "icon": null, "placepageUri": "https://www.google.com/earth/rpc/entity?lat=8.75927&lng=76.8557&fid=0x3b05aee66c658e95:0x33810209f61ec283&hl=en&gl=in&client=earth-client&cv=7.3.6.10441&useragent=GoogleEarth/7.3.6.10441(X11;Linux (6.17.0.0);en;kml:2.2;client:Pro;type:default)", "snippet": "93M8+CGM, Avanakuzhi-Kamukincodu Rd, Thiruvananthapuram, Athiyannur, Kerala 695123" }, "geometry": { "type": "Point", "coordinates": [ 77.0662969, 8.3835948, 0.0 ] } },
{ "type": "Feature", "properties": { "Name": "Community Health Centre Vellanad", "description": "<!DOCTYPE html><html><head></head><body><script type=\"text/javascript\">window.location.href=\"https://www.google.com/earth/rpc/entity?lat=8.75927&lng=76.8557&fid=0x3b05b702ce607f8d:0x43284604301bd680&hl=en&gl=in&client=earth-client&cv=7.3.6.10441&useragent=GoogleEarth/7.3.6.10441(X11;Linux (6.17.0.0);en;kml:2.2;client:Pro;type:default)\";</script></body></html>", "timestamp": null, "begin": null, "end": null, "altitudeMode": null, "tessellate": -1, "extrude": 0, "visibility": -1, "drawOrder": null, "icon": null, "placepageUri": "https://www.google.com/earth/rpc/entity?lat=8.75927&lng=76.8557&fid=0x3b05b702ce607f8d:0x43284604301bd680&hl=en&gl=in&client=earth-client&cv=7.3.6.10441&useragent=GoogleEarth/7.3.6.10441(X11;Linux (6.17.0.0);en;kml:2.2;client:Pro;type:default)", "snippet": "H352+WW, Vellanad, Kerala 695543" }, "geometry": { "type": "Point", "coordinates": [ 77.0541718, 8.561322, 0.0 ] } },
{ "type": "Feature", "properties": { "Name": "Community Health Centre, Vellarada", "description": "<!DOCTYPE html><html><head></head><body><script type=\"text/javascript\">window.location.href=\"https://www.google.com/earth/rpc/entity?lat=8.75927&lng=76.8557&fid=0x3b044d5495ad2385:0xd12b7eaac5eb7bd1&hl=en&gl=in&client=earth-client&cv=7.3.6.10441&useragent=GoogleEarth/7.3.6.10441(X11;Linux (6.17.0.0);en;kml:2.2;client:Pro;type:default)\";</script></body></html>", "timestamp": null, "begin": null, "end": null, "altitudeMode": null, "tessellate": -1, "extrude": 0, "visibility": -1, "drawOrder": null, "icon": null, "placepageUri": "https://www.google.com/earth/rpc/entity?lat=8.75927&lng=76.8557&fid=0x3b044d5495ad2385:0xd12b7eaac5eb7bd1&hl=en&gl=in&client=earth-client&cv=7.3.6.10441&useragent=GoogleEarth/7.3.6.10441(X11;Linux (6.17.0.0);en;kml:2.2;client:Pro;type:default)", "snippet": "F52V+XQX, Vellarada, Kerala 695505" }, "geometry": { "type": "Point", "coordinates": [ 77.1944708, 8.4524767, 0.0 ] } },
{ "type": "Feature", "properties": { "Name": "Puthenthope Public Health Centre", "description": "<!DOCTYPE html><html><head></head><body><script type=\"text/javascript\">window.location.href=\"https://www.google.com/earth/rpc/entity?lat=8.57546995&lng=76.84313415&fid=0x3b05bfcf5601dca7:0x41055d425e2a68fb&hl=en&gl=in&client=earth-client&cv=7.3.6.10441&useragent=GoogleEarth/7.3.6.10441(X11;Linux (6.17.0.0);en;kml:2.2;client:Pro;type:default)\";</script></body></html>", "timestamp": null, "begin": null, "end": null, "altitudeMode": null, "tessellate": -1, "extrude": 0, "visibility": -1, "drawOrder": null, "icon": null, "placepageUri": "https://www.google.com/earth/rpc/entity?lat=8.57546995&lng=76.84313415&fid=0x3b05bfcf5601dca7:0x41055d425e2a68fb&hl=en&gl=in&client=earth-client&cv=7.3.6.10441&useragent=GoogleEarth/7.3.6.10441(X11;Linux (6.17.0.0);en;kml:2.2;client:Pro;type:default)", "snippet": "HRGV+55P, Menamkulam, Kerala 695586" }, "geometry": { "type": "Point", "coordinates": [ 76.8429037, 8.5755057, 0.0 ] } },
{ "type": "Feature", "properties": { "Name": "Community Health Centre Puthenthope Office", "description": "<!DOCTYPE html><html><head></head><body><script type=\"text/javascript\">window.location.href=\"https://www.google.com/earth/rpc/entity?lat=8.57546995&lng=76.84313415&fid=0x3b05bf0012341af5:0x240639e3907302d5&hl=en&gl=in&client=earth-client&cv=7.3.6.10441&useragent=GoogleEarth/7.3.6.10441(X11;Linux (6.17.0.0);en;kml:2.2;client:Pro;type:default)\";</script></body></html>", "timestamp": null, "begin": null, "end": null, "altitudeMode": null, "tessellate": -1, "extrude": 0, "visibility": -1, "drawOrder": null, "icon": null, "placepageUri": "https://www.google.com/earth/rpc/entity?lat=8.57546995&lng=76.84313415&fid=0x3b05bf0012341af5:0x240639e3907302d5&hl=en&gl=in&client=earth-client&cv=7.3.6.10441&useragent=GoogleEarth/7.3.6.10441(X11;Linux (6.17.0.0);en;kml:2.2;client:Pro;type:default)", "snippet": "Hospital, Puthenthope, Kaniyapuram, Kerala 695301" }, "geometry": { "type": "Point", "coordinates": [ 76.8431267, 8.5756526, 0.0 ] } },
{ "type": "Feature", "properties": { "Name": "Puthenthope Hospital", "description": "<!DOCTYPE html><html><head></head><body><script type=\"text/javascript\">window.location.href=\"https://www.google.com/earth/rpc/entity?lat=8.57546995&lng=76.84313415&fid=0x3b05bfcf55b4acbf:0x63df2ca571068db7&hl=en&gl=in&client=earth-client&cv=7.3.6.10441&useragent=GoogleEarth/7.3.6.10441(X11;Linux (6.17.0.0);en;kml:2.2;client:Pro;type:default)\";</script></body></html>", "timestamp": null, "begin": null, "end": null, "altitudeMode": null, "tessellate": -1, "extrude": 0, "visibility": -1, "drawOrder": null, "icon": null, "placepageUri": "https://www.google.com/earth/rpc/entity?lat=8.57546995&lng=76.84313415&fid=0x3b05bfcf55b4acbf:0x63df2ca571068db7&hl=en&gl=in&client=earth-client&cv=7.3.6.10441&useragent=GoogleEarth/7.3.6.10441(X11;Linux (6.17.0.0);en;kml:2.2;client:Pro;type:default)", "snippet": "HRHQ+2XJ Community Health Center, CHITTATTUMUKKU, Puthenthope, Kaniyapuram, Kerala 695586" }, "geometry": { "type": "Point", "coordinates": [ 76.8429236, 8.5755438, 0.0 ] } },
{ "type": "Feature", "properties": { "Name": "Main Gate CHC PUTHENTHOPE", "description": "<!DOCTYPE html><html><head></head><body><script type=\"text/javascript\">window.location.href=\"https://www.google.com/earth/rpc/entity?lat=8.57546995&lng=76.84313415&fid=0x3b05bf0036751833:0xf5f21cae2132d04c&hl=en&gl=in&client=earth-client&cv=7.3.6.10441&useragent=GoogleEarth/7.3.6.10441(X11;Linux (6.17.0.0);en;kml:2.2;client:Pro;type:default)\";</script></body></html>", "timestamp": null, "begin": null, "end": null, "altitudeMode": null, "tessellate": -1, "extrude": 0, "visibility": -1, "drawOrder": null, "icon": null, "placepageUri": "https://www.google.com/earth/rpc/entity?lat=8.57546995&lng=76.84313415&fid=0x3b05bf0036751833:0xf5f21cae2132d04c&hl=en&gl=in&client=earth-client&cv=7.3.6.10441&useragent=GoogleEarth/7.3.6.10441(X11;Linux (6.17.0.0);en;kml:2.2;client:Pro;type:default)", "snippet": "Puthenthope Hospital, CHITTATTUMUKKU, Kaniyapuram, Thiruvananthapuram, Kerala 695586" }, "geometry": { "type": "Point", "coordinates": [ 76.8429259, 8.5753362, 0.0 ] } },
{ "type": "Feature", "properties": { "Name": "Immunisation Block CHC PUTHENTHOPE", "description": "<!DOCTYPE html><html><head></head><body><script type=\"text/javascript\">window.location.href=\"https://www.google.com/earth/rpc/entity?lat=8.57546995&lng=76.84313415&fid=0x3b05bf004aa31703:0x430a06fde8f5584e&hl=en&gl=in&client=earth-client&cv=7.3.6.10441&useragent=GoogleEarth/7.3.6.10441(X11;Linux (6.17.0.0);en;kml:2.2;client:Pro;type:default)\";</script></body></html>", "timestamp": null, "begin": null, "end": null, "altitudeMode": null, "tessellate": -1, "extrude": 0, "visibility": -1, "drawOrder": null, "icon": null, "placepageUri": "https://www.google.com/earth/rpc/entity?lat=8.57546995&lng=76.84313415&fid=0x3b05bf004aa31703:0x430a06fde8f5584e&hl=en&gl=in&client=earth-client&cv=7.3.6.10441&useragent=GoogleEarth/7.3.6.10441(X11;Linux (6.17.0.0);en;kml:2.2;client:Pro;type:default)", "snippet": "Puthenthope Hospital, CHITTATTUMUKKU, Kaniyapuram, Thiruvananthapuram, Kerala 695586" }, "geometry": { "type": "Point", "coordinates": [ 76.8430701, 8.5753598, 0.0 ] } },
{ "type": "Feature", "properties": { "Name": "OP & IP Building CHC PUTHENTHOPE", "description": "<!DOCTYPE html><html><head></head><body><script type=\"text/javascript\">window.location.href=\"https://www.google.com/earth/rpc/entity?lat=8.57546995&lng=76.84313415&fid=0x3b05bf004bc0bde1:0x74f63b4c60efd483&hl=en&gl=in&client=earth-client&cv=7.3.6.10441&useragent=GoogleEarth/7.3.6.10441(X11;Linux (6.17.0.0);en;kml:2.2;client:Pro;type:default)\";</script></body></html>", "timestamp": null, "begin": null, "end": null, "altitudeMode": null, "tessellate": -1, "extrude": 0, "visibility": -1, "drawOrder": null, "icon": null, "placepageUri": "https://www.google.com/earth/rpc/entity?lat=8.57546995&lng=76.84313415&fid=0x3b05bf004bc0bde1:0x74f63b4c60efd483&hl=en&gl=in&client=earth-client&cv=7.3.6.10441&useragent=GoogleEarth/7.3.6.10441(X11;Linux (6.17.0.0);en;kml:2.2;client:Pro;type:default)", "snippet": "Hospital JN, Puthenthope, Kaniyapuram, Kerala 695301" }, "geometry": { "type": "Point", "coordinates": [ 76.8433447, 8.5752848, 0.0 ] } },
{ "type": "Feature", "properties": { "Name": "Vithura Taluk Hospital", "description": "<!DOCTYPE html><html><head></head><body><script type=\"text/javascript\">window.location.href=\"https://www.google.com/earth/rpc/entity?lat=8.562248049999999&lng=77.07095395&fid=0x3b05c96c4e63d969:0x2c33becde62a51a6&hl=en&gl=in&client=earth-client&cv=7.3.6.10441&useragent=GoogleEarth/7.3.6.10441(X11;Linux (6.17.0.0);en;kml:2.2;client:Pro;type:default)\";</script></body></html>", "timestamp": null, "begin": null, "end": null, "altitudeMode": null, "tessellate": -1, "extrude": 0, "visibility": -1, "drawOrder": null, "icon": null, "placepageUri": "https://www.google.com/earth/rpc/entity?lat=8.562248049999999&lng=77.07095395&fid=0x3b05c96c4e63d969:0x2c33becde62a51a6&hl=en&gl=in&client=earth-client&cv=7.3.6.10441&useragent=GoogleEarth/7.3.6.10441(X11;Linux (6.17.0.0);en;kml:2.2;client:Pro;type:default)", "snippet": "Vithura, Kerala 695551" }, "geometry": { "type": "Point", "coordinates": [ 77.0835256, 8.6730415, 0.0 ] } },
{ "type": "Feature", "properties": { "Name": "CHC Poonthura", "description": "<!DOCTYPE html><html><head></head><body><script type=\"text/javascript\">window.location.href=\"https://www.google.com/earth/rpc/entity?lat=8.562248049999999&lng=77.07095395&fid=0x3b05bb0003a04461:0x770143627b2a58d9&hl=en&gl=in&client=earth-client&cv=7.3.6.10441&useragent=GoogleEarth/7.3.6.10441(X11;Linux (6.17.0.0);en;kml:2.2;client:Pro;type:default)\";</script></body></html>", "timestamp": null, "begin": null, "end": null, "altitudeMode": null, "tessellate": -1, "extrude": 0, "visibility": -1, "drawOrder": null, "icon": null, "placepageUri": "https://www.google.com/earth/rpc/entity?lat=8.562248049999999&lng=77.07095395&fid=0x3b05bb0003a04461:0x770143627b2a58d9&hl=en&gl=in&client=earth-client&cv=7.3.6.10441&useragent=GoogleEarth/7.3.6.10441(X11;Linux (6.17.0.0);en;kml:2.2;client:Pro;type:default)", "snippet": "CWXW+7XV, SM Lock Rd, Karimbuvila, Poonthura, Thiruvananthapuram, Kerala 695026" }, "geometry": { "type": "Point", "coordinates": [ 76.9474371, 8.4482305, 0.0 ] } },
{ "type": "Feature", "properties": { "Name": "Community Health Centre, Vellarada", "description": "<!DOCTYPE html><html><head></head><body><script type=\"text/javascript\">window.location.href=\"https://www.google.com/earth/rpc/entity?lat=8.562248049999999&lng=77.07095395&fid=0x3b044d5495ad2385:0xd12b7eaac5eb7bd1&hl=en&gl=in&client=earth-client&cv=7.3.6.10441&useragent=GoogleEarth/7.3.6.10441(X11;Linux (6.17.0.0);en;kml:2.2;client:Pro;type:default)\";</script></body></html>", "timestamp": null, "begin": null, "end": null, "altitudeMode": null, "tessellate": -1, "extrude": 0, "visibility": -1, "drawOrder": null, "icon": null, "placepageUri": "https://www.google.com/earth/rpc/entity?lat=8.562248049999999&lng=77.07095395&fid=0x3b044d5495ad2385:0xd12b7eaac5eb7bd1&hl=en&gl=in&client=earth-client&cv=7.3.6.10441&useragent=GoogleEarth/7.3.6.10441(X11;Linux (6.17.0.0);en;kml:2.2;client:Pro;type:default)", "snippet": "F52V+XQX, Vellarada, Kerala 695505" }, "geometry": { "type": "Point", "coordinates": [ 77.1944708, 8.4524767, 0.0 ] } },
{ "type": "Feature", "properties": { "Name": "Community Health Centre Vellanad", "description": "<!DOCTYPE html><html><head></head><body><script type=\"text/javascript\">window.location.href=\"https://www.google.com/earth/rpc/entity?lat=8.562248049999999&lng=77.07095395&fid=0x3b05b702ce607f8d:0x43284604301bd680&hl=en&gl=in&client=earth-client&cv=7.3.6.10441&useragent=GoogleEarth/7.3.6.10441(X11;Linux (6.17.0.0);en;kml:2.2;client:Pro;type:default)\";</script></body></html>", "timestamp": null, "begin": null, "end": null, "altitudeMode": null, "tessellate": -1, "extrude": 0, "visibility": -1, "drawOrder": null, "icon": null, "placepageUri": "https://www.google.com/earth/rpc/entity?lat=8.562248049999999&lng=77.07095395&fid=0x3b05b702ce607f8d:0x43284604301bd680&hl=en&gl=in&client=earth-client&cv=7.3.6.10441&useragent=GoogleEarth/7.3.6.10441(X11;Linux (6.17.0.0);en;kml:2.2;client:Pro;type:default)", "snippet": "H352+WW, Vellanad, Kerala 695543" }, "geometry": { "type": "Point", "coordinates": [ 77.0541718, 8.561322, 0.0 ] } },
{ "type": "Feature", "properties": { "Name": "Community health center chayam", "description": "<!DOCTYPE html><html><head></head><body><script type=\"text/javascript\">window.location.href=\"https://www.google.com/earth/rpc/entity?lat=8.562248049999999&lng=77.07095395&fid=0x3b05c9678c00e143:0x34e28c8a43ed43c1&hl=en&gl=in&client=earth-client&cv=7.3.6.10441&useragent=GoogleEarth/7.3.6.10441(X11;Linux (6.17.0.0);en;kml:2.2;client:Pro;type:default)\";</script></body></html>", "timestamp": null, "begin": null, "end": null, "altitudeMode": null, "tessellate": -1, "extrude": 0, "visibility": -1, "drawOrder": null, "icon": null, "placepageUri": "https://www.google.com/earth/rpc/entity?lat=8.562248049999999&lng=77.07095395&fid=0x3b05c9678c00e143:0x34e28c8a43ed43c1&hl=en&gl=in&client=earth-client&cv=7.3.6.10441&useragent=GoogleEarth/7.3.6.10441(X11;Linux (6.17.0.0);en;kml:2.2;client:Pro;type:default)", "snippet": "M3GF+GV4, Koppam - Sasthamkavu Road, Vithura, Kerala 695551" }, "geometry": { "type": "Point", "coordinates": [ 77.074716, 8.6762656, 0.0 ] } },
{ "type": "Feature", "properties": { "Name": "Govt Hospital Vizhinjam", "description": "<!DOCTYPE html><html><head></head><body><script type=\"text/javascript\">window.location.href=\"https://www.google.com/earth/rpc/entity?lat=8.410310449999999&lng=76.9831263&fid=0x3b05a599abb3d1e7:0x4948e07d6a98e993&hl=en&gl=in&client=earth-client&cv=7.3.6.10441&useragent=GoogleEarth/7.3.6.10441(X11;Linux (6.17.0.0);en;kml:2.2;client:Pro;type:default)\";</script></body></html>", "timestamp": null, "begin": null, "end": null, "altitudeMode": null, "tessellate": -1, "extrude": 0, "visibility": -1, "drawOrder": null, "icon": null, "placepageUri": "https://www.google.com/earth/rpc/entity?lat=8.410310449999999&lng=76.9831263&fid=0x3b05a599abb3d1e7:0x4948e07d6a98e993&hl=en&gl=in&client=earth-client&cv=7.3.6.10441&useragent=GoogleEarth/7.3.6.10441(X11;Linux (6.17.0.0);en;kml:2.2;client:Pro;type:default)", "snippet": "Near Theatre Junction, Kalluvettankuzhy, Vizhinjam, Thiruvananthapuram, Venganoor, Kerala 695521" }, "geometry": { "type": "Point", "coordinates": [ 76.9905541, 8.3899447, 0.0 ] } },
{ "type": "Feature", "properties": { "Name": "CHC, Vizhinjam", "description": "<!DOCTYPE html><html><head></head><body><script type=\"text/javascript\">window.location.href=\"https://www.google.com/earth/rpc/entity?lat=8.410310449999999&lng=76.9831263&fid=0x3b05a5565d9458a1:0x5bdd025e9709bff2&hl=en&gl=in&client=earth-client&cv=7.3.6.10441&useragent=GoogleEarth/7.3.6.10441(X11;Linux (6.17.0.0);en;kml:2.2;client:Pro;type:default)\";</script></body></html>", "timestamp": null, "begin": null, "end": null, "altitudeMode": null, "tessellate": -1, "extrude": 0, "visibility": -1, "drawOrder": null, "icon": null, "placepageUri": "https://www.google.com/earth/rpc/entity?lat=8.410310449999999&lng=76.9831263&fid=0x3b05a5565d9458a1:0x5bdd025e9709bff2&hl=en&gl=in&client=earth-client&cv=7.3.6.10441&useragent=GoogleEarth/7.3.6.10441(X11;Linux (6.17.0.0);en;kml:2.2;client:Pro;type:default)", "snippet": "CXJG+77G, Thiruvananthapuram, Kerala 695522" }, "geometry": { "type": "Point", "coordinates": [ 76.9756985, 8.4306762, 0.0 ] } },
{ "type": "Feature", "properties": { "Name": "General Hospital Neyyattinkara", "description": "<!DOCTYPE html><html><head></head><body><script type=\"text/javascript\">window.location.href=\"https://www.google.com/earth/rpc/entity?lat=8.406555800000001&lng=77.0853626&fid=0x3b05ae63f8402dad:0x3a60182f721eb19f&hl=en&gl=in&client=earth-client&cv=7.3.6.10441&useragent=GoogleEarth/7.3.6.10441(X11;Linux (6.17.0.0);en;kml:2.2;client:Pro;type:default)\";</script></body></html>", "timestamp": null, "begin": null, "end": null, "altitudeMode": null, "tessellate": -1, "extrude": 0, "visibility": -1, "drawOrder": null, "icon": null, "placepageUri": "https://www.google.com/earth/rpc/entity?lat=8.406555800000001&lng=77.0853626&fid=0x3b05ae63f8402dad:0x3a60182f721eb19f&hl=en&gl=in&client=earth-client&cv=7.3.6.10441&useragent=GoogleEarth/7.3.6.10441(X11;Linux (6.17.0.0);en;kml:2.2;client:Pro;type:default)", "snippet": "C34P+Q55, Neyyattinkara Kattakkada Rd, Alummoodu, Neyyattinkara, Kerala 695121" }, "geometry": { "type": "Point", "coordinates": [ 77.0854718, 8.4068751, 0.0 ] } },
{ "type": "Feature", "properties": { "Name": "Neyyatinkara General Hospital OP Block", "description": "<!DOCTYPE html><html><head></head><body><script type=\"text/javascript\">window.location.href=\"https://www.google.com/earth/rpc/entity?lat=8.406555800000001&lng=77.0853626&fid=0x3b05ae6400074421:0xcb9f911fb5717b19&hl=en&gl=in&client=earth-client&cv=7.3.6.10441&useragent=GoogleEarth/7.3.6.10441(X11;Linux (6.17.0.0);en;kml:2.2;client:Pro;type:default)\";</script></body></html>", "timestamp": null, "begin": null, "end": null, "altitudeMode": null, "tessellate": -1, "extrude": 0, "visibility": -1, "drawOrder": null, "icon": null, "placepageUri": "https://www.google.com/earth/rpc/entity?lat=8.406555800000001&lng=77.0853626&fid=0x3b05ae6400074421:0xcb9f911fb5717b19&hl=en&gl=in&client=earth-client&cv=7.3.6.10441&useragent=GoogleEarth/7.3.6.10441(X11;Linux (6.17.0.0);en;kml:2.2;client:Pro;type:default)", "snippet": "C34P+M42, Neyyattinkara Kattakkada Rd, Alummoodu, Neyyattinkara, Kerala 695121" }, "geometry": { "type": "Point", "coordinates": [ 77.0852521, 8.4066312, 0.0 ] } },
{ "type": "Feature", "properties": { "Name": "District Hospital", "description": "<!DOCTYPE html><html><head></head><body><script type=\"text/javascript\">window.location.href=\"https://www.google.com/earth/rpc/entity?lat=8.406555800000001&lng=77.0853626&fid=0x3b05ae63f939c03f:0x568a04855de45163&hl=en&gl=in&client=earth-client&cv=7.3.6.10441&useragent=GoogleEarth/7.3.6.10441(X11;Linux (6.17.0.0);en;kml:2.2;client:Pro;type:default)\";</script></body></html>", "timestamp": null, "begin": null, "end": null, "altitudeMode": null, "tessellate": -1, "extrude": 0, "visibility": -1, "drawOrder": null, "icon": null, "placepageUri": "https://www.google.com/earth/rpc/entity?lat=8.406555800000001&lng=77.0853626&fid=0x3b05ae63f939c03f:0x568a04855de45163&hl=en&gl=in&client=earth-client&cv=7.3.6.10441&useragent=GoogleEarth/7.3.6.10441(X11;Linux (6.17.0.0);en;kml:2.2;client:Pro;type:default)", "snippet": "Nmc 32-235, Neyyattinkara, Mahathma Gandhi Rd, Thiruvananthapuram, Kerala 695121" }, "geometry": { "type": "Point", "coordinates": [ 77.0854731, 8.4062365, 0.0 ] } },
{ "type": "Feature", "properties": { "Name": "State TB Cell", "description": "<!DOCTYPE html><html><head></head><body><script type=\"text/javascript\">window.location.href=\"https://www.google.com/earth/rpc/entity?lat=8.493652100000002&lng=76.9452223&fid=0x3b05bbbdfd7176ed:0x186427651639dc4d&hl=en&gl=in&client=earth-client&cv=7.3.6.10441&useragent=GoogleEarth/7.3.6.10441(X11;Linux (6.17.0.0);en;kml:2.2;client:Pro;type:default)\";</script></body></html>", "timestamp": null, "begin": null, "end": null, "altitudeMode": null, "tessellate": -1, "extrude": 0, "visibility": -1, "drawOrder": null, "icon": null, "placepageUri": "https://www.google.com/earth/rpc/entity?lat=8.493652100000002&lng=76.9452223&fid=0x3b05bbbdfd7176ed:0x186427651639dc4d&hl=en&gl=in&client=earth-client&cv=7.3.6.10441&useragent=GoogleEarth/7.3.6.10441(X11;Linux (6.17.0.0);en;kml:2.2;client:Pro;type:default)", "snippet": "FWXR+GQM, Red Cross Rd, Rishimangalam, Vanchiyoor, Thiruvananthapuram, Kerala 695035" }, "geometry": { "type": "Point", "coordinates": [ 76.9419665, 8.4988117, 0.0 ] } },
{ "type": "Feature", "properties": { "Name": "TB Centre,general Hospital", "description": "<!DOCTYPE html><html><head></head><body><script type=\"text/javascript\">window.location.href=\"https://www.google.com/earth/rpc/entity?lat=8.493652100000002&lng=76.9452223&fid=0x3b05bbbe60933b89:0x60a75e06f2943db&hl=en&gl=in&client=earth-client&cv=7.3.6.10441&useragent=GoogleEarth/7.3.6.10441(X11;Linux (6.17.0.0);en;kml:2.2;client:Pro;type:default)\";</script></body></html>", "timestamp": null, "begin": null, "end": null, "altitudeMode": null, "tessellate": -1, "extrude": 0, "visibility": -1, "drawOrder": null, "icon": null, "placepageUri": "https://www.google.com/earth/rpc/entity?lat=8.493652100000002&lng=76.9452223&fid=0x3b05bbbe60933b89:0x60a75e06f2943db&hl=en&gl=in&client=earth-client&cv=7.3.6.10441&useragent=GoogleEarth/7.3.6.10441(X11;Linux (6.17.0.0);en;kml:2.2;client:Pro;type:default)", "snippet": "FWXV+WHG, Jai Vihar, Kunnukuzhy, Thiruvananthapuram, Kerala 695035" }, "geometry": { "type": "Point", "coordinates": [ 76.9439543, 8.4998092, 0.0 ] } },
{ "type": "Feature", "properties": { "Name": "Tb Hospital", "description": "<!DOCTYPE html><html><head></head><body><script type=\"text/javascript\">window.location.href=\"https://www.google.com/earth/rpc/entity?lat=8.493652100000002&lng=76.9452223&fid=0x3b05bba698de1ad9:0x2378c79ef181a9d0&hl=en&gl=in&client=earth-client&cv=7.3.6.10441&useragent=GoogleEarth/7.3.6.10441(X11;Linux (6.17.0.0);en;kml:2.2;client:Pro;type:default)\";</script></body></html>", "timestamp": null, "begin": null, "end": null, "altitudeMode": null, "tessellate": -1, "extrude": 0, "visibility": -1, "drawOrder": null, "icon": null, "placepageUri": "https://www.google.com/earth/rpc/entity?lat=8.493652100000002&lng=76.9452223&fid=0x3b05bba698de1ad9:0x2378c79ef181a9d0&hl=en&gl=in&client=earth-client&cv=7.3.6.10441&useragent=GoogleEarth/7.3.6.10441(X11;Linux (6.17.0.0);en;kml:2.2;client:Pro;type:default)", "snippet": "Fort, Co Operative Bank Building, M G Road, Overbridge, Chalai Bazaar, Chalai, Thiruvananthapuram, Kerala 695036" }, "geometry": { "type": "Point", "coordinates": [ 76.948623, 8.487495, 0.0 ] } },
{ "type": "Feature", "properties": { "Name": "General Hospital Neyyattinkara", "description": "<!DOCTYPE html><html><head></head><body><script type=\"text/javascript\">window.location.href=\"https://www.google.com/earth/rpc/entity?lat=8.40675315&lng=77.08536194999999&fid=0x3b05ae63f8402dad:0x3a60182f721eb19f&hl=en&gl=in&client=earth-client&cv=7.3.6.10441&useragent=GoogleEarth/7.3.6.10441(X11;Linux (6.17.0.0);en;kml:2.2;client:Pro;type:default)\";</script></body></html>", "timestamp": null, "begin": null, "end": null, "altitudeMode": null, "tessellate": -1, "extrude": 0, "visibility": -1, "drawOrder": null, "icon": null, "placepageUri": "https://www.google.com/earth/rpc/entity?lat=8.40675315&lng=77.08536194999999&fid=0x3b05ae63f8402dad:0x3a60182f721eb19f&hl=en&gl=in&client=earth-client&cv=7.3.6.10441&useragent=GoogleEarth/7.3.6.10441(X11;Linux (6.17.0.0);en;kml:2.2;client:Pro;type:default)", "snippet": "C34P+Q55, Neyyattinkara Kattakkada Rd, Alummoodu, Neyyattinkara, Kerala 695121" }, "geometry": { "type": "Point", "coordinates": [ 77.0854718, 8.4068751, 0.0 ] } },
{ "type": "Feature", "properties": { "Name": "Government Ayurveda College Hospital for Women and Children", "description": "<!DOCTYPE html><html><head></head><body><script type=\"text/javascript\">window.location.href=\"https://www.google.com/earth/rpc/entity?lat=8.49965&lng=76.943&fid=0x3b05ba44e256702b:0x806fd51efc14f60c&hl=en&gl=in&client=earth-client&cv=7.3.6.10441&useragent=GoogleEarth/7.3.6.10441(X11;Linux (6.17.0.0);en;kml:2.2;client:Pro;type:default)\";</script></body></html>", "timestamp": null, "begin": null, "end": null, "altitudeMode": null, "tessellate": -1, "extrude": 0, "visibility": -1, "drawOrder": null, "icon": null, "placepageUri": "https://www.google.com/earth/rpc/entity?lat=8.49965&lng=76.943&fid=0x3b05ba44e256702b:0x806fd51efc14f60c&hl=en&gl=in&client=earth-client&cv=7.3.6.10441&useragent=GoogleEarth/7.3.6.10441(X11;Linux (6.17.0.0);en;kml:2.2;client:Pro;type:default)", "snippet": "TC17/1426, Chengallor Road, Cherukara Gardens, Poojapura, Thiruvananthapuram, Kerala 695012" }, "geometry": { "type": "Point", "coordinates": [ 76.9785768, 8.4962584, 0.0 ] } },
{ "type": "Feature", "properties": { "Name": "Government Ayurveda Dispensary", "description": "<!DOCTYPE html><html><head></head><body><script type=\"text/javascript\">window.location.href=\"https://www.google.com/earth/rpc/entity?lat=8.49965&lng=76.943&fid=0x3b05bb125841ccb3:0x82b44f869548bcf8&hl=en&gl=in&client=earth-client&cv=7.3.6.10441&useragent=GoogleEarth/7.3.6.10441(X11;Linux (6.17.0.0);en;kml:2.2;client:Pro;type:default)\";</script></body></html>", "timestamp": null, "begin": null, "end": null, "altitudeMode": null, "tessellate": -1, "extrude": 0, "visibility": -1, "drawOrder": null, "icon": null, "placepageUri": "https://www.google.com/earth/rpc/entity?lat=8.49965&lng=76.943&fid=0x3b05bb125841ccb3:0x82b44f869548bcf8&hl=en&gl=in&client=earth-client&cv=7.3.6.10441&useragent=GoogleEarth/7.3.6.10441(X11;Linux (6.17.0.0);en;kml:2.2;client:Pro;type:default)", "snippet": "FXMX+MPM, Poojapura, Thiruvananthapuram, Kerala 695032" }, "geometry": { "type": "Point", "coordinates": [ 76.9992844, 8.484211, 0.0 ] } },
{ "type": "Feature", "properties": { "Name": "PHC VALIYATHURA", "description": "<!DOCTYPE html><html><head></head><body><script type=\"text/javascript\">window.location.href=\"https://www.google.com/earth/rpc/entity?lat=8.4632012&lng=76.92682535&fid=0x3b05bb67020748a5:0x58663fbe9dd746db&hl=en&gl=in&client=earth-client&cv=7.3.6.10441&useragent=GoogleEarth/7.3.6.10441(X11;Linux (6.17.0.0);en;kml:2.2;client:Pro;type:default)\";</script></body></html>", "timestamp": null, "begin": null, "end": null, "altitudeMode": null, "tessellate": -1, "extrude": 0, "visibility": -1, "drawOrder": null, "icon": null, "placepageUri": "https://www.google.com/earth/rpc/entity?lat=8.4632012&lng=76.92682535&fid=0x3b05bb67020748a5:0x58663fbe9dd746db&hl=en&gl=in&client=earth-client&cv=7.3.6.10441&useragent=GoogleEarth/7.3.6.10441(X11;Linux (6.17.0.0);en;kml:2.2;client:Pro;type:default)", "snippet": "FW7G+6H5, Valiyathura, Thiruvananthapuram, Kerala 695008" }, "geometry": { "type": "Point", "coordinates": [ 76.9264905, 8.4630176, 0.0 ] } },
{ "type": "Feature", "properties": { "Name": "Coastal speciality hospital, Valiyathura", "description": "<!DOCTYPE html><html><head></head><body><script type=\"text/javascript\">window.location.href=\"https://www.google.com/earth/rpc/entity?lat=8.4632012&lng=76.92682535&fid=0x3b05bb0026cb8e85:0x76af23a127cce3e5&hl=en&gl=in&client=earth-client&cv=7.3.6.10441&useragent=GoogleEarth/7.3.6.10441(X11;Linux (6.17.0.0);en;kml:2.2;client:Pro;type:default)\";</script></body></html>", "timestamp": null, "begin": null, "end": null, "altitudeMode": null, "tessellate": -1, "extrude": 0, "visibility": -1, "drawOrder": null, "icon": null, "placepageUri": "https://www.google.com/earth/rpc/entity?lat=8.4632012&lng=76.92682535&fid=0x3b05bb0026cb8e85:0x76af23a127cce3e5&hl=en&gl=in&client=earth-client&cv=7.3.6.10441&useragent=GoogleEarth/7.3.6.10441(X11;Linux (6.17.0.0);en;kml:2.2;client:Pro;type:default)", "snippet": "FW7G+9V3, Valiyathura - Beemapally - Poonthura Rd, Manickamvilakam, Beemapally, Thiruvananthapuram, Kerala 695008" }, "geometry": { "type": "Point", "coordinates": [ 76.9271602, 8.4633848, 0.0 ] } },
{ "type": "Feature", "properties": { "Name": "Chest Diseases Hospital", "description": "<!DOCTYPE html><html><head></head><body><script type=\"text/javascript\">window.location.href=\"https://www.google.com/earth/rpc/entity?lat=8.518290899999998&lng=76.91457385&fid=0x3b05bc014f325179:0x823c02ae0fa5ec83&hl=en&gl=in&client=earth-client&cv=7.3.6.10441&useragent=GoogleEarth/7.3.6.10441(X11;Linux (6.17.0.0);en;kml:2.2;client:Pro;type:default)\";</script></body></html>", "timestamp": null, "begin": null, "end": null, "altitudeMode": null, "tessellate": -1, "extrude": 0, "visibility": -1, "drawOrder": null, "icon": null, "placepageUri": "https://www.google.com/earth/rpc/entity?lat=8.518290899999998&lng=76.91457385&fid=0x3b05bc014f325179:0x823c02ae0fa5ec83&hl=en&gl=in&client=earth-client&cv=7.3.6.10441&useragent=GoogleEarth/7.3.6.10441(X11;Linux (6.17.0.0);en;kml:2.2;client:Pro;type:default)", "snippet": "GW97+QF6, Prashant Nagar Road, near Indian Institute of Diabetic Centre, Pulayanarkotta, Thiruvananthapuram, Kerala 695011" }, "geometry": { "type": "Point", "coordinates": [ 76.9136345, 8.5194059, 0.0 ] } },
{ "type": "Feature", "properties": { "Name": "Government Taluk Hospital - Valiyakunnu", "description": "<!DOCTYPE html><html><head></head><body><script type=\"text/javascript\">window.location.href=\"https://www.google.com/earth/rpc/entity?lat=8.5670799&lng=76.88760015&fid=0x3b05c1fdb0789369:0xe18d905114b53e2&hl=en&gl=in&client=earth-client&cv=7.3.6.10441&useragent=GoogleEarth/7.3.6.10441(X11;Linux (6.17.0.0);en;kml:2.2;client:Pro;type:default)\";</script></body></html>", "timestamp": null, "begin": null, "end": null, "altitudeMode": null, "tessellate": -1, "extrude": 0, "visibility": -1, "drawOrder": null, "icon": null, "placepageUri": "https://www.google.com/earth/rpc/entity?lat=8.5670799&lng=76.88760015&fid=0x3b05c1fdb0789369:0xe18d905114b53e2&hl=en&gl=in&client=earth-client&cv=7.3.6.10441&useragent=GoogleEarth/7.3.6.10441(X11;Linux (6.17.0.0);en;kml:2.2;client:Pro;type:default)", "snippet": "MRPH+C7J, Attingal, Koonthalloor, Kerala 695104" }, "geometry": { "type": "Point", "coordinates": [ 76.8281369, 8.686086, 0.0 ] } },
{ "type": "Feature", "properties": { "Name": "Taluk hospital, attingal", "description": "<!DOCTYPE html><html><head></head><body><script type=\"text/javascript\">window.location.href=\"https://www.google.com/earth/rpc/entity?lat=8.5670799&lng=76.88760015&fid=0x3b05bb30d32fde6f:0x2e7ebd23dc935df7&hl=en&gl=in&client=earth-client&cv=7.3.6.10441&useragent=GoogleEarth/7.3.6.10441(X11;Linux (6.17.0.0);en;kml:2.2;client:Pro;type:default)\";</script></body></html>", "timestamp": null, "begin": null, "end": null, "altitudeMode": null, "tessellate": -1, "extrude": 0, "visibility": -1, "drawOrder": null, "icon": null, "placepageUri": "https://www.google.com/earth/rpc/entity?lat=8.5670799&lng=76.88760015&fid=0x3b05bb30d32fde6f:0x2e7ebd23dc935df7&hl=en&gl=in&client=earth-client&cv=7.3.6.10441&useragent=GoogleEarth/7.3.6.10441(X11;Linux (6.17.0.0);en;kml:2.2;client:Pro;type:default)", "snippet": "Police Station, SM Lock Rd, near Poonthura, Karimbuvila, Poonthura, Thiruvananthapuram, Kerala 695026" }, "geometry": { "type": "Point", "coordinates": [ 76.947085, 8.4480437, 0.0 ] } },
{ "type": "Feature", "properties": { "Name": "Taluk hospital", "description": "<!DOCTYPE html><html><head></head><body><script type=\"text/javascript\">window.location.href=\"https://www.google.com/earth/rpc/entity?lat=8.4862821&lng=76.94083090000001&fid=0x3b05bb0aeaaaaaab:0x387c12e1ae014bdc&hl=en&gl=in&client=earth-client&cv=7.3.6.10441&useragent=GoogleEarth/7.3.6.10441(X11;Linux (6.17.0.0);en;kml:2.2;client:Pro;type:default)\";</script></body></html>", "timestamp": null, "begin": null, "end": null, "altitudeMode": null, "tessellate": -1, "extrude": 0, "visibility": -1, "drawOrder": null, "icon": null, "placepageUri": "https://www.google.com/earth/rpc/entity?lat=8.4862821&lng=76.94083090000001&fid=0x3b05bb0aeaaaaaab:0x387c12e1ae014bdc&hl=en&gl=in&client=earth-client&cv=7.3.6.10441&useragent=GoogleEarth/7.3.6.10441(X11;Linux (6.17.0.0);en;kml:2.2;client:Pro;type:default)", "snippet": "FWPR+G84, near SP Fort Hospital, Prasanthi Nagar, Pazhavangadi, Thiruvananthapuram, Kerala 695008" }, "geometry": { "type": "Point", "coordinates": [ 76.9408406, 8.4862646, 0.0 ] } },
{ "type": "Feature", "properties": { "Name": "Government Fort Hospital", "description": "<!DOCTYPE html><html><head></head><body><script type=\"text/javascript\">window.location.href=\"https://www.google.com/earth/rpc/entity?lat=8.4862821&lng=76.94083090000001&fid=0x3b05bb9f6722d309:0x193321f18d1a4a6c&hl=en&gl=in&client=earth-client&cv=7.3.6.10441&useragent=GoogleEarth/7.3.6.10441(X11;Linux (6.17.0.0);en;kml:2.2;client:Pro;type:default)\";</script></body></html>", "timestamp": null, "begin": null, "end": null, "altitudeMode": null, "tessellate": -1, "extrude": 0, "visibility": -1, "drawOrder": null, "icon": null, "placepageUri": "https://www.google.com/earth/rpc/entity?lat=8.4862821&lng=76.94083090000001&fid=0x3b05bb9f6722d309:0x193321f18d1a4a6c&hl=en&gl=in&client=earth-client&cv=7.3.6.10441&useragent=GoogleEarth/7.3.6.10441(X11;Linux (6.17.0.0);en;kml:2.2;client:Pro;type:default)", "snippet": "FWPR+G88, Thakaraparambu Rd, Prasanthi Nagar, Pazhavangadi, Thiruvananthapuram, Kerala 695008" }, "geometry": { "type": "Point", "coordinates": [ 76.9408212, 8.4862996, 0.0 ] } }
]
}
