{
"type": "FeatureCollection",
"name": "trivandrum_panchayat",
"crs": { "type": "name", "properties": { "name": "urn:ogc:def:crs:EPSG::32643" } },
"features": [
{ "type": "Feature", "properties": { "Name": "Kizhuvilom", "Phone": "0470-2640342", "Mobile": "9496040740", "Email": "kizhuvilamgp@gmail.com", "Hotspot": 0 }, "geometry": { "type": "Point", "coordinates": [ 698657.566839257022366, 958034.737280347384512, 0.0 ] } },
{ "type": "Feature", "properties": { "Name": "Karakulam", "Phone": "0471-2372046", "Mobile": "9496040688", "Email": "karakulamgp46@gmail.com", "Hotspot": 1 }, "geometry": { "type": "Point", "coordinates": [ 719050.030878132442012, 947571.549050291185267, 0.0 ] } },
{ "type": "Feature", "properties": { "Name": "Manickal", "Phone": "0472-2582046", "Mobile": "9496040700", "Email": "manickalgp@gmail.com", "Hotspot": 1 }, "geometry": { "type": "Point", "coordinates": [ 713464.902653130935505, 956572.113228489411995, 0.0 ] } },
{ "type": "Feature", "properties": { "Name": "Kadinamkulam", "Phone": "0471-2750249", "Mobile": "9496040670", "Email": "kadinamkulamgp@gmail.com", "Hotspot": 1 }, "geometry": { "type": "Point", "coordinates": [ 700060.405630697961897, 951423.548520133132115, 0.0 ] } },
{ "type": "Feature", "properties": { "Name": "Mangalapuram", "Phone": "0471-2420261", "Mobile": "9496040666", "Email": "secmangalapuram@gmail.com", "Hotspot": 1 }, "geometry": { "type": "Point", "coordinates": [ 703420.269216177752241, 953801.041896200738847, 0.0 ] } },
{ "type": "Feature", "properties": { "Name": "Kilimanoor", "Phone": "0470-2672222", "Mobile": "9496040722", "Email": "secretarykmr@gmail.com", "Hotspot": 1 }, "geometry": { "type": "Point", "coordinates": [ 706894.754329494549893, 969958.013382846605964, 0.0 ] } },
{ "type": "Feature", "properties": { "Name": "Mudakkal", "Phone": "0470-2639035", "Mobile": "9496040742", "Email": "mudakkalgp@gmail.com", "Hotspot": 1 }, "geometry": { "type": "Point", "coordinates": [ 705336.899228876223788, 962200.973228671355173, 0.0 ] } },
{ "type": "Feature", "properties": { "Name": "Perumkadavila", "Phone": "0471-2275258", "Mobile": "9496040630", "Email": "nregapkvila@gmail.com", "Hotspot": 1 }, "geometry": { "type": "Point", "coordinates": [ 732121.627681150217541, 933522.385953701334074, 0.0 ] } },
{ "type": "Feature", "properties": { "Name": "Kattakada", "Phone": "0471-2290337", "Mobile": "9496040672", "Email": "ktkdagp@gmail.com", "Hotspot": 1 }, "geometry": { "type": "Point", "coordinates": [ 729548.375278790364973, 940551.902586134732701, 0.0 ] } },
{ "type": "Feature", "properties": { "Name": "Vellanadu", "Phone": "0472-2882034", "Mobile": "9496040674", "Email": "vellanadgp@gmail.com", "Hotspot": 1 }, "geometry": { "type": "Point", "coordinates": [ 726659.934605942806229, 947276.396564358845353, 0.0 ] } },
{ "type": "Feature", "properties": { "Name": "Navaikulam", "Phone": "0470-2692022", "Mobile": "9496040724", "Email": "nvkmgpt@gmail.com", "Hotspot": 1 }, "geometry": { "type": "Point", "coordinates": [ 696538.632765357382596, 971203.127835170598701, 0.0 ] } },
{ "type": "Feature", "properties": { "Name": "Kollayil", "Phone": "0471-2232383", "Mobile": "9496040628", "Email": "kollayilgp@gmail.com", "Hotspot": 1 }, "geometry": { "type": "Point", "coordinates": [ 735383.662817524396814, 929511.6649459162727, 0.0 ] } },
{ "type": "Feature", "properties": { "Name": "Kalliyoor", "Phone": "0471-2400258", "Mobile": "9496040662", "Email": "secretaryklyrgp@gmail.com", "Hotspot": 1 }, "geometry": { "type": "Point", "coordinates": [ 722039.586646752664819, 932688.022073906380683, 0.0 ] } },
{ "type": "Feature", "properties": { "Name": "Pothencode", "Phone": "0471-2419238", "Mobile": "9496040664", "Email": "pothencodugp@gmail.com", "Hotspot": 1 }, "geometry": { "type": "Point", "coordinates": [ 708947.106436942587607, 953300.846877614501864, 0.0 ] } },
{ "type": "Feature", "properties": { "Name": "Aanadu", "Phone": "0472-2802375", "Mobile": "9496040694", "Email": "anadgp@gmail.com", "Hotspot": 1 }, "geometry": { "type": "Point", "coordinates": [ 721309.005597819574177, 954917.106330980896018, 0.0 ] } },
{ "type": "Feature", "properties": { "Name": "Vamanapuram", "Phone": "0472-2835034", "Mobile": "9496040698", "Email": "secretaryvamanapuram@gmail.com", "Hotspot": 1 }, "geometry": { "type": "Point", "coordinates": [ 708811.890560164581984, 964425.594802351901308, 0.0 ] } },
{ "type": "Feature", "properties": { "Name": "Vellarada", "Phone": "0471-2242042", "Mobile": "9496040624", "Email": "vellaradagp@gmail.com", "Hotspot": 1 }, "geometry": { "type": "Point", "coordinates": [ 741753.080520362593234, 934692.083470212761313, 0.0 ] } },
{ "type": "Feature", "properties": { "Name": "Cherynniyoor", "Phone": "0470-2602365", "Mobile": "9496040746", "Email": "cherugp@gmail.com", "Hotspot": 1 }, "geometry": { "type": "Point", "coordinates": [ 692944.739764822763391, 964979.177883767290041, 0.0 ] } },
{ "type": "Feature", "properties": { "Name": "Kunnathukal", "Phone": "0471-2250235", "Mobile": "9496040626", "Email": "nregakkl@gmail.com", "Hotspot": 1 }, "geometry": { "type": "Point", "coordinates": [ 738053.067011025850661, 928073.791939853108488, 0.0 ] } },
{ "type": "Feature", "properties": { "Name": "Anjutengu", "Phone": "0470-2656651", "Mobile": "9496040738", "Email": "anchuthenggp@gmail.com", "Hotspot": 0 }, "geometry": { "type": "Point", "coordinates": [ 693447.912335800821893, 959196.270054406602867, 0.0 ] } },
{ "type": "Feature", "properties": { "Name": "Andoorkonam", "Phone": "0471-2750251", "Mobile": "9496040668", "Email": "adrkmgp@gmail.com", "Hotspot": 0 }, "geometry": { "type": "Point", "coordinates": [ 706342.517124068457633, 951232.829306921106763, 0.0 ] } },
{ "type": "Feature", "properties": { "Name": "Athiyannur", "Phone": "0471-2222367", "Mobile": "9496040640", "Email": "athiyannoorgp@gmail.com", "Hotspot": 0 }, "geometry": { "type": "Point", "coordinates": [ 727254.603518710238859, 926792.767104492406361, 0.0 ] } },
{ "type": "Feature", "properties": { "Name": "Amboori", "Phone": "0471-2245242", "Mobile": "9496040638", "Email": "amboorigp@gmail.com", "Hotspot": 0 }, "geometry": { "type": "Point", "coordinates": [ 741268.670907984720543, 940712.55407084687613, 0.0 ] } },
{ "type": "Feature", "properties": { "Name": "Aruvikkara", "Phone": "0472-2888225", "Mobile": "9496040690", "Email": "aruvikkaragp@gmail.com", "Hotspot": 0 }, "geometry": { "type": "Point", "coordinates": [ 721904.591964115272276, 947386.603352248901501, 0.0 ] } },
{ "type": "Feature", "properties": { "Name": "Azhoor", "Phone": "0470-2636255", "Mobile": "9496040730", "Email": "azhoorgpt@gmail.com", "Hotspot": 0 }, "geometry": { "type": "Point", "coordinates": [ 697953.253445028327405, 955977.385146152228117, 0.0 ] } },
{ "type": "Feature", "properties": { "Name": "Aryancode", "Phone": "0471-2255226", "Mobile": "9496040632", "Email": "aryancodegp@gmail.com", "Hotspot": 0 }, "geometry": { "type": "Point", "coordinates": [ 734797.492921912693419, 936745.145236645475961, 0.0 ] } },
{ "type": "Feature", "properties": { "Name": "Aryanadu", "Phone": "0472-2852029", "Mobile": "9496040678", "Email": "gparnd@gmail.com", "Hotspot": 0 }, "geometry": { "type": "Point", "coordinates": [ 729503.36359780211933, 948875.618289549835026, 0.0 ] } },
{ "type": "Feature", "properties": { "Name": "Edava", "Phone": "0470-2600083", "Mobile": "9496040748", "Email": "edavagp@gmail.com", "Hotspot": 0 }, "geometry": { "type": "Point", "coordinates": [ 686552.807573436410166, 969245.88129697565455, 0.0 ] } },
{ "type": "Feature", "properties": { "Name": "Elakamon", "Phone": "0470-2667611", "Mobile": "9496040750", "Email": "elakamon.panchayath@gmail.com", "Hotspot": 0 }, "geometry": { "type": "Point", "coordinates": [ 689411.472677165875211, 971445.668214711127803, 0.0 ] } },
{ "type": "Feature", "properties": { "Name": "Uzhamalakkal", "Phone": "0472-2899026", "Mobile": "9496040684", "Email": "uzhamalakkalgp@gmail.com", "Hotspot": 0 }, "geometry": { "type": "Point", "coordinates": [ 726006.853686972637661, 950820.350114780128933, 0.0 ] } },
{ "type": "Feature", "properties": { "Name": "Ottasekharamangalam", "Phone": "0471-2255238", "Mobile": "9496040634", "Email": "ottasekharamangalamgp@gmail.com", "Hotspot": 0 }, "geometry": { "type": "Point", "coordinates": [ 734789.368517563678324, 938230.465862798970193, 0.0 ] } },
{ "type": "Feature", "properties": { "Name": "Ottoor", "Phone": "0470-2689061", "Mobile": "9496040756", "Email": "sottorgp@gmail.com", "Hotspot": 0 }, "geometry": { "type": "Point", "coordinates": [ 695159.863693887833506, 966556.744689234998077, 0.0 ] } },
{ "type": "Feature", "properties": { "Name": "Kadakavoor", "Phone": "0470-2656632", "Mobile": "9496040734", "Email": "kdkvrgp@gmail.com", "Hotspot": 0 }, "geometry": { "type": "Point", "coordinates": [ 694857.778555421391502, 960294.071435320307501, 0.0 ] } },
{ "type": "Feature", "properties": { "Name": "Karuvaram", "Phone": "0470-2690260", "Mobile": "9496040716", "Email": "karavarampanchayat@gmail.com", "Hotspot": 0 }, "geometry": { "type": "Point", "coordinates": [ 699080.704651251784526, 968312.254662582883611, 0.0 ] } },
{ "type": "Feature", "properties": { "Name": "Karumkulam", "Phone": "0471-2210042", "Mobile": "9496040644", "Email": "karumkulam@gmail.com", "Hotspot": 0 }, "geometry": { "type": "Point", "coordinates": [ 725523.460908898268826, 922289.713020965806209, 0.0 ] } },
{ "type": "Feature", "properties": { "Name": "Kallara", "Phone": "0472-2860240", "Mobile": "9496040710", "Email": "kallaragp@gmail.com", "Hotspot": 0 }, "geometry": { "type": "Point", "coordinates": [ 714097.816556373960339, 968767.349126667832024, 0.0 ] } },
{ "type": "Feature", "properties": { "Name": "Kallikadu", "Phone": "0471-2272339", "Mobile": "9496040636", "Email": "kallikkadugp@gmail.com", "Hotspot": 0 }, "geometry": { "type": "Point", "coordinates": [ 733785.50283947843127, 943800.823613740503788, 0.0 ] } },
{ "type": "Feature", "properties": { "Name": "Kanjiramkulam", "Phone": "0471-2260031", "Mobile": "9496040642", "Email": "kanjiramkulamgp@gmail.com", "Hotspot": 0 }, "geometry": { "type": "Point", "coordinates": [ 726145.256020277389325, 924685.683035154012032, 0.0 ] } },
{ "type": "Feature", "properties": { "Name": "Karodu", "Phone": "0471-2215067", "Mobile": "9496040614", "Email": "karodegp@gmail.com", "Hotspot": 0 }, "geometry": { "type": "Point", "coordinates": [ 733140.888074200367555, 920802.508696715696715, 0.0 ] } },
{ "type": "Feature", "properties": { "Name": "Kuttichal", "Phone": "0472-2852024", "Mobile": "9496040682", "Email": "kuttichalgp@gmail.com", "Hotspot": 0 }, "geometry": { "type": "Point", "coordinates": [ 731095.336853843182325, 947450.962855740683153, 0.0 ] } },
{ "type": "Feature", "properties": { "Name": "Kulathoor", "Phone": "0471-2210089", "Mobile": "9496040616", "Email": "kulathurgp2009@gmail.com", "Hotspot": 0 }, "geometry": { "type": "Point", "coordinates": [ 730917.535882861237042, 921606.901798161561601, 0.0 ] } },
{ "type": "Feature", "properties": { "Name": "Kottukal", "Phone": "0471-2268236", "Mobile": "9496040646", "Email": "Kottukalgptvm@gmail.com", "Hotspot": 0 }, "geometry": { "type": "Point", "coordinates": [ 724246.762203237158246, 927544.060438532265835, 0.0 ] } },
{ "type": "Feature", "properties": { "Name": "Churayinkeezhu", "Phone": "0470-2640334", "Mobile": "9496040732", "Email": "chirayinkeezhgp@gmail.com", "Hotspot": 0 }, "geometry": { "type": "Point", "coordinates": [ 696227.604757166001946, 957245.225476836087182, 0.0 ] } },
{ "type": "Feature", "properties": { "Name": "Chenkal", "Phone": "0471-2232260", "Mobile": "9496040618", "Email": "chenkalgramapanchayat@gmail.com", "Hotspot": 0 }, "geometry": { "type": "Point", "coordinates": [ 731341.555375878466293, 925745.056037435308099, 0.0 ] } },
{ "type": "Feature", "properties": { "Name": "Chemmaruthy", "Phone": "0470-2602377", "Mobile": "9496040752", "Email": "chemaruthygp@gmail.com", "Hotspot": 0 }, "geometry": { "type": "Point", "coordinates": [ 693454.176798623520881, 968419.14952401292976, 0.0 ] } },
{ "type": "Feature", "properties": { "Name": "Thirupuram", "Phone": "0471-2260738", "Mobile": "9496040620", "Email": "thirupuramgp@gmail.com", "Hotspot": 0 }, "geometry": { "type": "Point", "coordinates": [ 728824.659764820476994, 923869.325688895536587, 0.0 ] } },
{ "type": "Feature", "properties": { "Name": "Tholicode", "Phone": "0472-2879374", "Mobile": "9496040686", "Email": "sectkd@gmail.com", "Hotspot": 0 }, "geometry": { "type": "Point", "coordinates": [ 726147.277672835625708, 956234.737465910147876, 0.0 ] } },
{ "type": "Feature", "properties": { "Name": "Nagaroor", "Phone": "0470-2672242", "Mobile": "9496040718", "Email": "nagaroorgp@gmail.com", "Hotspot": 0 }, "geometry": { "type": "Point", "coordinates": [ 703255.167234902270138, 966137.493359770509414, 0.0 ] } },
{ "type": "Feature", "properties": { "Name": "Nanniyode", "Phone": "0472-2840224", "Mobile": "9496040706", "Email": "nanniyodesecretary@gmail.com", "Hotspot": 0 }, "geometry": { "type": "Point", "coordinates": [ 723408.572016697959043, 962625.945002658641897, 0.0 ] } },
{ "type": "Feature", "properties": { "Name": "Nellanadu", "Phone": "0472-2872031", "Mobile": "9496040702", "Email": "nellanadgp@gmail.com", "Hotspot": 0 }, "geometry": { "type": "Point", "coordinates": [ 709770.476868077879772, 960886.628483279026113, 0.0 ] } },
{ "type": "Feature", "properties": { "Name": "Panavoor", "Phone": "0472-2865761", "Mobile": "9496040696", "Email": "secretarypanavoorgp@gmail.com", "Hotspot": 0 }, "geometry": { "type": "Point", "coordinates": [ 718034.95602249505464, 957948.304803119273856, 0.0 ] } },
{ "type": "Feature", "properties": { "Name": "Pallikkal", "Phone": "0470-2682049", "Mobile": "9496040728", "Email": "pallickalgp@gmail.com", "Hotspot": 0 }, "geometry": { "type": "Point", "coordinates": [ 699081.702504102955572, 976100.671601848909631, 0.0 ] } },
{ "type": "Feature", "properties": { "Name": "Pallichal", "Phone": "0471-2400368", "Mobile": "9496040654", "Email": "secretarypclgp@gmail.com", "Hotspot": 0 }, "geometry": { "type": "Point", "coordinates": [ 723066.56385577947367, 934634.876689590048045, 0.0 ] } },
{ "type": "Feature", "properties": { "Name": "Pazhayakunnumal", "Phone": "0470-2672335", "Mobile": "9496040720", "Email": "pkmlgp@gmail.com", "Hotspot": 0 }, "geometry": { "type": "Point", "coordinates": [ 707193.651679500588216, 971646.33463394397404, 0.0 ] } },
{ "type": "Feature", "properties": { "Name": "Pangode", "Phone": "0471-2869241", "Mobile": "9496040712", "Email": "gppangodu@gmail.com", "Hotspot": 0 }, "geometry": { "type": "Point", "coordinates": [ 718292.523007933981717, 940559.847766880295239, 0.0 ] } },
{ "type": "Feature", "properties": { "Name": "Parasala", "Phone": "0471-2202033", "Mobile": "9496040612", "Email": "parassalagp@gmail.com", "Hotspot": 0 }, "geometry": { "type": "Point", "coordinates": [ 737065.426413539680652, 922875.153399133472703, 0.0 ] } },
{ "type": "Feature", "properties": { "Name": "Pullampara", "Phone": "0472-2829031", "Mobile": "9496040704", "Email": "pullamparagramapanchayat@gmail.com", "Hotspot": 0 }, "geometry": { "type": "Point", "coordinates": [ 714141.973992872750387, 962022.020411420264281, 0.0 ] } },
{ "type": "Feature", "properties": { "Name": "Pulimaathu", "Phone": "0470-2836252", "Mobile": "9496040714", "Email": "secretarypulimath@gmail.com", "Hotspot": 0 }, "geometry": { "type": "Point", "coordinates": [ 708175.814380070311017, 967368.852627478074282, 0.0 ] } },
{ "type": "Feature", "properties": { "Name": "Poovachal", "Phone": "0472-2896338", "Mobile": "9496040676", "Email": "poovachalgp@gmail.com", "Hotspot": 0 }, "geometry": { "type": "Point", "coordinates": [ 729684.05723928543739, 944275.896850350894965, 0.0 ] } },
{ "type": "Feature", "properties": { "Name": "Poovar", "Phone": "0471-2210032", "Mobile": "9496040622", "Email": "poovargp@gmail.com", "Hotspot": 0 }, "geometry": { "type": "Point", "coordinates": [ 728072.346575013943948, 920016.348705713870004, 0.0 ] } },
{ "type": "Feature", "properties": { "Name": "Peringammala", "Phone": "0472-2845532", "Mobile": "9496040708", "Email": "peringamalagp@gmail.com", "Hotspot": 0 }, "geometry": { "type": "Point", "coordinates": [ 722495.328944472130388, 931003.967829852714203, 0.0 ] } },
{ "type": "Feature", "properties": { "Name": "Balaramapuram", "Phone": "0471-2400342", "Mobile": "9496040652", "Email": "balaramapuramgpt@gmail.com", "Hotspot": 0 }, "geometry": { "type": "Point", "coordinates": [ 725741.381099003250711, 932656.065864600474015, 0.0 ] } },
{ "type": "Feature", "properties": { "Name": "Madavoor", "Phone": "0470-2682022", "Mobile": "9496040726", "Email": "secretarymdrgp@gmail.com", "Hotspot": 0 }, "geometry": { "type": "Point", "coordinates": [ 700041.087917029159144, 974326.094523823005147, 0.0 ] } },
{ "type": "Feature", "properties": { "Name": "Manamboor", "Phone": "0470-2689044", "Mobile": "9496040754", "Email": "manamboorgp@gmail.com", "Hotspot": 0 }, "geometry": { "type": "Point", "coordinates": [ 697222.953195775276981, 967091.92173355887644, 0.0 ] } },
{ "type": "Feature", "properties": { "Name": "Malayinkeezhu", "Phone": "0471-2282021", "Mobile": "9496040656", "Email": "secretarymkl@gmail.com", "Hotspot": 0 }, "geometry": { "type": "Point", "coordinates": [ 724140.470953448559158, 939075.409357297583483, 0.0 ] } },
{ "type": "Feature", "properties": { "Name": "Maaranalloor", "Phone": "0471-2298354", "Mobile": "9496040650", "Email": "marpansec@gmail.com", "Hotspot": 0 }, "geometry": { "type": "Point", "coordinates": [ 728164.182746464735828, 937056.568464762996882, 0.0 ] } },
{ "type": "Feature", "properties": { "Name": "Vakkom", "Phone": "0470-2653637", "Mobile": "9496040736", "Email": "secretaryvkkm@gmail.com", "Hotspot": 0 }, "geometry": { "type": "Point", "coordinates": [ 693599.046483050566167, 960838.84772892377805, 0.0 ] } },
{ "type": "Feature", "properties": { "Name": "Vithura", "Phone": "0472-2856221", "Mobile": "9496040680", "Email": "vithuragramapanchayat@gmail.com", "Hotspot": 0 }, "geometry": { "type": "Point", "coordinates": [ 729443.738844140199944, 959590.052180413622409, 0.0 ] } },
{ "type": "Feature", "properties": { "Name": "Vilappil", "Phone": "0471-2289127", "Mobile": "9496040658", "Email": "vilappil.gp@gmail.com", "Hotspot": 0 }, "geometry": { "type": "Point", "coordinates": [ 724465.286899019032717, 942730.622500930447131, 0.0 ] } },
{ "type": "Feature", "properties": { "Name": "Vilavoorkal", "Phone": "0471-2282055", "Mobile": "9496040660", "Email": "vklgp2012@gmail.com", "Hotspot": 0 }, "geometry": { "type": "Point", "coordinates": [ 722743.693866446148604, 938184.428617635276169, 0.0 ] } },
{ "type": "Feature", "properties": { "Name": "Vengannoor", "Phone": "0471-2480256", "Mobile": "9496040648", "Email": "venganoorpanchayat@gmail.com", "Hotspot": 0 }, "geometry": { "type": "Point", "coordinates": [ 720834.482099167304114, 929645.020056040608324, 0.0 ] } },
{ "type": "Feature", "properties": { "Name": "Vettoor", "Phone": "0470-2602380", "Mobile": "9496040744", "Email": "vettoorgp@gmail.com", "Hotspot": 0 }, "geometry": { "type": "Point", "coordinates": [ 692963.798417421523482, 965026.883105430519208, 0.0 ] } },
{ "type": "Feature", "properties": { "Name": "Vembhayam", "Phone": "0472-2832025", "Mobile": "9496040692", "Email": "vembayamgp@gmail.com", "Hotspot": 0 }, "geometry": { "type": "Point", "coordinates": [ 713142.340964966570027, 955517.624471205519512, 0.0 ] } }
]
}
