{
"type": "FeatureCollection",
"name": "TVM_Govt_PHC_Facilities",
"crs": { "type": "name", "properties": { "name": "urn:ogc:def:crs:OGC:1.3:CRS84" } },
"features": [
{ "type": "Feature", "properties": { "element": "node", "id": 2688024027, "name": "Dr. Raheema Kalam", "amenity": "doctors", "healthcare": "doctor", "operator": null, "addr:full": null }, "geometry": { "type": "Point", "coordinates": [ 76.9547666, 8.4631413 ] } },
{ "type": "Feature", "properties": { "element": "node", "id": 3941728099, "name": "Upasana hospital", "amenity": "clinic", "healthcare": null, "operator": null, "addr:full": null }, "geometry": { "type": "Point", "coordinates": [ 76.9773886, 8.3903273 ] } },
{ "type": "Feature", "properties": { "element": "node", "id": 3941728100, "name": "Devi Scans and MRI laboratory", "amenity": "clinic", "healthcare": null, "operator": null, "addr:full": null }, "geometry": { "type": "Point", "coordinates": [ 76.9773785, 8.3902756 ] } },
{ "type": "Feature", "properties": { "element": "node", "id": 4584002989, "name": "Thanal Ayurveda Treatment", "amenity": "doctors", "healthcare": null, "operator": null, "addr:full": null }, "geometry": { "type": "Point", "coordinates": [ 76.7037156, 8.7364363 ] } },
{ "type": "Feature", "properties": { "element": "node", "id": 4747167721, "name": "Dr. Krishna kumar", "amenity": "doctors", "healthcare": null, "operator": null, "addr:full": null }, "geometry": { "type": "Point", "coordinates": [ 76.9150138, 8.5498815 ] } },
{ "type": "Feature", "properties": { "element": "node", "id": 4830999221, "name": "Dr Chandran's Ayurvedic Hospital", "amenity": "doctors", "healthcare": "doctor", "operator": null, "addr:full": null }, "geometry": { "type": "Point", "coordinates": [ 76.9507209, 8.4590736 ] } },
{ "type": "Feature", "properties": { "element": "node", "id": 5398516321, "name": "Spring Garden Medical Clinic", "amenity": "clinic", "healthcare": "clinic", "operator": "Department of Health and Family Welfare", "addr:full": null }, "geometry": { "type": "Point", "coordinates": [ 76.9407134, 8.5217367 ] } },
{ "type": "Feature", "properties": { "element": "node", "id": 5418127158, "name": "Dr.Athi's Homeopathy", "amenity": "doctors", "healthcare": "doctor", "operator": null, "addr:full": null }, "geometry": { "type": "Point", "coordinates": [ 76.8746709, 8.5595506 ] } },
{ "type": "Feature", "properties": { "element": "node", "id": 5418127165, "name": "Dr.Jayasree Gynaecologist", "amenity": "doctors", "healthcare": "doctor", "operator": null, "addr:full": null }, "geometry": { "type": "Point", "coordinates": [ 76.8738698, 8.5621662 ] } },
{ "type": "Feature", "properties": { "element": "node", "id": 5418127166, "name": "Dr.Binish Homeo", "amenity": "doctors", "healthcare": "doctor", "operator": null, "addr:full": null }, "geometry": { "type": "Point", "coordinates": [ 76.8738946, 8.5618756 ] } },
{ "type": "Feature", "properties": { "element": "node", "id": 5418127169, "name": "Dr.Saju", "amenity": "doctors", "healthcare": "doctor", "operator": null, "addr:full": null }, "geometry": { "type": "Point", "coordinates": [ 76.874214, 8.5608246 ] } },
{ "type": "Feature", "properties": { "element": "node", "id": 5418151090, "name": "adans beauty clinic", "amenity": "clinic", "healthcare": "clinic", "operator": null, "addr:full": null }, "geometry": { "type": "Point", "coordinates": [ 76.8750622, 8.5583398 ] } },
{ "type": "Feature", "properties": { "element": "node", "id": 5418152945, "name": "Homeo Physician", "amenity": "doctors", "healthcare": "doctor", "operator": null, "addr:full": null }, "geometry": { "type": "Point", "coordinates": [ 76.884308, 8.5731016 ] } },
{ "type": "Feature", "properties": { "element": "node", "id": 5418179747, "name": null, "amenity": "clinic", "healthcare": "clinic", "operator": null, "addr:full": null }, "geometry": { "type": "Point", "coordinates": [ 76.8741723, 8.560805 ] } },
{ "type": "Feature", "properties": { "element": "node", "id": 5418179751, "name": null, "amenity": "clinic", "healthcare": "clinic", "operator": null, "addr:full": null }, "geometry": { "type": "Point", "coordinates": [ 76.87386, 8.5618954 ] } },
{ "type": "Feature", "properties": { "element": "node", "id": 5418179753, "name": null, "amenity": "doctors", "healthcare": "doctor", "operator": null, "addr:full": null }, "geometry": { "type": "Point", "coordinates": [ 76.8738938, 8.562178 ] } },
{ "type": "Feature", "properties": { "element": "node", "id": 6950320523, "name": "Avittam Ayurvedic Centre", "amenity": "clinic", "healthcare": null, "operator": null, "addr:full": "Pettah" }, "geometry": { "type": "Point", "coordinates": [ 76.9265719, 8.4931701 ] } },
{ "type": "Feature", "properties": { "element": "node", "id": 6950602003, "name": "CGHS Dispensary No.3", "amenity": "clinic", "healthcare": "centre", "operator": null, "addr:full": "Dharmadesan Lane, Vanchiyoor" }, "geometry": { "type": "Point", "coordinates": [ 76.9440164, 8.4921508 ] } },
{ "type": "Feature", "properties": { "element": "node", "id": 6951412639, "name": "Stavyah Lifecare", "amenity": "clinic", "healthcare": null, "operator": null, "addr:full": "Varkala, Palachira" }, "geometry": { "type": "Point", "coordinates": [ 76.7293377, 8.7309645 ] } },
{ "type": "Feature", "properties": { "element": "node", "id": 6951443868, "name": "Janaki Nursing Home (Tsunami Project Only)", "amenity": "clinic", "healthcare": null, "operator": null, "addr:full": "Kadakkavoor, Trivandram" }, "geometry": { "type": "Point", "coordinates": [ 76.7670583, 8.6737474 ] } },
{ "type": "Feature", "properties": { "element": "node", "id": 6954076751, "name": "CGHS Dispensary No.2", "amenity": "clinic", "healthcare": "centre", "operator": null, "addr:full": "C.P.Gopalapanicker Lane, Sasthamangalam" }, "geometry": { "type": "Point", "coordinates": [ 76.9746311, 8.5132824 ] } },
{ "type": "Feature", "properties": { "element": "node", "id": 6957345205, "name": "Bhavani Arogyanikethanam", "amenity": "clinic", "healthcare": "clinic", "operator": null, "addr:full": "Nalanchira P.O" }, "geometry": { "type": "Point", "coordinates": [ 76.9438367, 8.5483734 ] } },
{ "type": "Feature", "properties": { "element": "node", "id": 6966301604, "name": "Triveni Nursing Home, Thiruvananthapuram", "amenity": "clinic", "healthcare": "clinic", "operator": null, "addr:full": "Vachiyoor" }, "geometry": { "type": "Point", "coordinates": [ 76.9398663, 8.4908277 ] } },
{ "type": "Feature", "properties": { "element": "node", "id": 7128149675, "name": "Govt.V&G HSS,Poovar", "amenity": null, "healthcare": null, "operator": "Government", "addr:full": null }, "geometry": { "type": "Point", "coordinates": [ 77.0699619, 8.3188699 ] } },
{ "type": "Feature", "properties": { "element": "node", "id": 7130150129, "name": "P.R Dental Clinic", "amenity": "clinic", "healthcare": "clinic", "operator": null, "addr:full": null }, "geometry": { "type": "Point", "coordinates": [ 76.9904722, 8.5018949 ] } },
{ "type": "Feature", "properties": { "element": "node", "id": 7130172605, "name": "Aradhana Eye Hospital", "amenity": "clinic", "healthcare": "clinic", "operator": null, "addr:full": null }, "geometry": { "type": "Point", "coordinates": [ 76.9422568, 8.4850303 ] } },
{ "type": "Feature", "properties": { "element": "node", "id": 7244907989, "name": "Tooth Fairy", "amenity": "dentist", "healthcare": "clinic", "operator": null, "addr:full": null }, "geometry": { "type": "Point", "coordinates": [ 76.9506357, 8.5158572 ] } },
{ "type": "Feature", "properties": { "element": "node", "id": 7391570754, "name": "Paruthippally Veterinary Hospital", "amenity": "veterinary", "healthcare": null, "operator": "Government", "addr:full": null }, "geometry": { "type": "Point", "coordinates": [ 77.1050164, 8.5626512 ] } },
{ "type": "Feature", "properties": { "element": "node", "id": 7391570811, "name": "Homeo Hospital,Pezhummoodu", "amenity": "hospital", "healthcare": "hospital", "operator": "Government", "addr:full": null }, "geometry": { "type": "Point", "coordinates": [ 77.0946899, 8.5527741 ] } },
{ "type": "Feature", "properties": { "element": "node", "id": 7454405232, "name": "homeo clinic", "amenity": "clinic", "healthcare": "clinic", "operator": null, "addr:full": null }, "geometry": { "type": "Point", "coordinates": [ 77.0858701, 8.4031607 ] } },
{ "type": "Feature", "properties": { "element": "node", "id": 7461403271, "name": "Kerala Beverages Corporation", "amenity": null, "healthcare": null, "operator": "Government", "addr:full": null }, "geometry": { "type": "Point", "coordinates": [ 76.9409043, 8.4627976 ] } },
{ "type": "Feature", "properties": { "element": "node", "id": 7461872357, "name": "VV Clinic", "amenity": "clinic", "healthcare": "clinic", "operator": null, "addr:full": null }, "geometry": { "type": "Point", "coordinates": [ 76.8183352, 8.6973587 ] } },
{ "type": "Feature", "properties": { "element": "node", "id": 7461966099, "name": "Kerala Cooperative Bank", "amenity": "bank", "healthcare": null, "operator": "Government", "addr:full": null }, "geometry": { "type": "Point", "coordinates": [ 76.9727747, 8.4105433 ] } },
{ "type": "Feature", "properties": { "element": "node", "id": 7462520139, "name": "Muncipal Library, Kacheri, Attingal", "amenity": "library", "healthcare": null, "operator": "Government", "addr:full": null }, "geometry": { "type": "Point", "coordinates": [ 76.8138061, 8.6999284 ] } },
{ "type": "Feature", "properties": { "element": "node", "id": 7469432751, "name": "Upasana clinic", "amenity": "clinic", "healthcare": "clinic", "operator": null, "addr:full": null }, "geometry": { "type": "Point", "coordinates": [ 76.9876147, 8.5242104 ] } },
{ "type": "Feature", "properties": { "element": "node", "id": 7469555394, "name": "Siva Kripa Nursing Home and Surgical", "amenity": "clinic", "healthcare": "clinic", "operator": null, "addr:full": null }, "geometry": { "type": "Point", "coordinates": [ 76.9299877, 8.4877398 ] } },
{ "type": "Feature", "properties": { "element": "node", "id": 7473864104, "name": "Government College Attingal, BA Dept.", "amenity": "college", "healthcare": null, "operator": "Government", "addr:full": null }, "geometry": { "type": "Point", "coordinates": [ 76.8202808, 8.6962438 ] } },
{ "type": "Feature", "properties": { "element": "node", "id": 7473867427, "name": "Neethanya Dental Clinic", "amenity": "doctors", "healthcare": "doctor", "operator": null, "addr:full": null }, "geometry": { "type": "Point", "coordinates": [ 76.9796877, 8.5142829 ] } },
{ "type": "Feature", "properties": { "element": "node", "id": 7481976953, "name": "Ayurveda clinic", "amenity": "clinic", "healthcare": "clinic", "operator": null, "addr:full": null }, "geometry": { "type": "Point", "coordinates": [ 76.9664102, 8.5378073 ] } },
{ "type": "Feature", "properties": { "element": "node", "id": 7528506124, "name": "Govt Palace Dispensery", "amenity": "clinic", "healthcare": null, "operator": null, "addr:full": null }, "geometry": { "type": "Point", "coordinates": [ 76.9610276, 8.5234497 ] } },
{ "type": "Feature", "properties": { "element": "node", "id": 7632701236, "name": "Sanjeevani Ayurvedic Clinic", "amenity": "clinic", "healthcare": "clinic", "operator": null, "addr:full": null }, "geometry": { "type": "Point", "coordinates": [ 77.0306157, 8.5092923 ] } },
{ "type": "Feature", "properties": { "element": "node", "id": 7650519652, "name": "Mahatma Gandhi Memorial Library", "amenity": "library", "healthcare": null, "operator": "Government", "addr:full": null }, "geometry": { "type": "Point", "coordinates": [ 77.0868108, 8.5324758 ] } },
{ "type": "Feature", "properties": { "element": "node", "id": 7730027689, "name": "Karthika Clinic", "amenity": "clinic", "healthcare": null, "operator": null, "addr:full": "Sudarshan Nagar, Idapazhanji" }, "geometry": { "type": "Point", "coordinates": [ 76.9672672, 8.4951312 ] } },
{ "type": "Feature", "properties": { "element": "node", "id": 7730027690, "name": "Breathe Well Clinic", "amenity": "clinic", "healthcare": null, "operator": null, "addr:full": "Ambalamukku" }, "geometry": { "type": "Point", "coordinates": [ 76.9605378, 8.5258158 ] } },
{ "type": "Feature", "properties": { "element": "node", "id": 7730027692, "name": "Providence Endocrine & Diabetes Speciality Centre", "amenity": "clinic", "healthcare": null, "operator": "Department of Health and Family Welfare", "addr:full": "Prasanth Nagar, Ulloor" }, "geometry": { "type": "Point", "coordinates": [ 76.920793, 8.53151 ] } },
{ "type": "Feature", "properties": { "element": "node", "id": 7730027693, "name": "Nims Nano Clinic", "amenity": "clinic", "healthcare": null, "operator": null, "addr:full": "Mangalathukonam, Kattachalkuzhi, Venganoor" }, "geometry": { "type": "Point", "coordinates": [ 77.031975, 8.4031013 ] } },
{ "type": "Feature", "properties": { "element": "node", "id": 7730027695, "name": "Dr. Vikraman", "amenity": "doctors", "healthcare": "doctor", "operator": null, "addr:full": null }, "geometry": { "type": "Point", "coordinates": [ 76.9292336, 8.5185162 ] } },
{ "type": "Feature", "properties": { "element": "node", "id": 7730027699, "name": "Lourde Matha Care Centre", "amenity": "clinic", "healthcare": "clinic", "operator": null, "addr:full": "P T Chacko Nagar, Ulloor" }, "geometry": { "type": "Point", "coordinates": [ 76.930057, 8.527513 ] } },
{ "type": "Feature", "properties": { "element": "node", "id": 7730027704, "name": "Aarush Siddha & Ayurvedic Clinic", "amenity": "clinic", "healthcare": null, "operator": null, "addr:full": "Mekkethottam, Balaramapuram" }, "geometry": { "type": "Point", "coordinates": [ 77.0283805, 8.4095751 ] } },
{ "type": "Feature", "properties": { "element": "node", "id": 7730027706, "name": "Dr. Kuriyan's Clinic", "amenity": "clinic", "healthcare": null, "operator": null, "addr:full": "Nalanchira, Mayuram, Paruthippara" }, "geometry": { "type": "Point", "coordinates": [ 76.9417525, 8.5410695 ] } },
{ "type": "Feature", "properties": { "element": "node", "id": 7730027711, "name": "Rysa Dental Clinic", "amenity": "clinic", "healthcare": "clinic", "operator": null, "addr:full": "Perunthanni, Pazhavangadi" }, "geometry": { "type": "Point", "coordinates": [ 76.9363852, 8.4814966 ] } },
{ "type": "Feature", "properties": { "element": "node", "id": 7730027714, "name": "Sai Clinic", "amenity": "clinic", "healthcare": null, "operator": null, "addr:full": "Kusavarkal, Chenkallur, Thiruvananthapuram" }, "geometry": { "type": "Point", "coordinates": [ 76.952273, 8.545123 ] } },
{ "type": "Feature", "properties": { "element": "node", "id": 7730027718, "name": "Cardiac Care Centre", "amenity": "clinic", "healthcare": null, "operator": null, "addr:full": "Kumarapuram" }, "geometry": { "type": "Point", "coordinates": [ 76.9255185, 8.5119455 ] } },
{ "type": "Feature", "properties": { "element": "node", "id": 7730027723, "name": "Dr. A. Marthanda Pillai", "amenity": "doctors", "healthcare": null, "operator": null, "addr:full": "Palkulangara" }, "geometry": { "type": "Point", "coordinates": [ 76.9313717, 8.4879612 ] } },
{ "type": "Feature", "properties": { "element": "node", "id": 7730027726, "name": "Diabetes Care Centre", "amenity": "clinic", "healthcare": null, "operator": null, "addr:full": "Sasthamangalam" }, "geometry": { "type": "Point", "coordinates": [ 76.9719325, 8.5084524 ] } },
{ "type": "Feature", "properties": { "element": "node", "id": 7730027729, "name": "Dr. Bimala Grace ENT Clinic", "amenity": "clinic", "healthcare": null, "operator": null, "addr:full": "Poojapura" }, "geometry": { "type": "Point", "coordinates": [ 76.9684193, 8.4931138 ] } },
{ "type": "Feature", "properties": { "element": "node", "id": 7730027731, "name": "Suvarna Aesthetics Plastic Surgery Centre", "amenity": "clinic", "healthcare": null, "operator": null, "addr:full": "Sasthamangalam" }, "geometry": { "type": "Point", "coordinates": [ 76.9725107, 8.5091283 ] } },
{ "type": "Feature", "properties": { "element": "node", "id": 7730027734, "name": "Dr. Pradeep Kidangoor's Children's Clinic", "amenity": "clinic", "healthcare": null, "operator": null, "addr:full": null }, "geometry": { "type": "Point", "coordinates": [ 77.0042418, 8.4537606 ] } },
{ "type": "Feature", "properties": { "element": "node", "id": 7730027736, "name": "Kidangoor Gopalakrishna Pillai Children's Medical Centre", "amenity": "clinic", "healthcare": null, "operator": null, "addr:full": "Kochar Road, Sasthamangalam" }, "geometry": { "type": "Point", "coordinates": [ 76.9762002, 8.5109287 ] } },
{ "type": "Feature", "properties": { "element": "node", "id": 7730027737, "name": "Anju Clinic", "amenity": "clinic", "healthcare": "clinic", "operator": null, "addr:full": "Thiruvallam" }, "geometry": { "type": "Point", "coordinates": [ 76.9598455, 8.4397101 ] } },
{ "type": "Feature", "properties": { "element": "node", "id": 7730027739, "name": "Dr. Senadhipan's Clinic", "amenity": "clinic", "healthcare": "clinic", "operator": null, "addr:full": null }, "geometry": { "type": "Point", "coordinates": [ 76.9273023, 8.5349095 ] } },
{ "type": "Feature", "properties": { "element": "node", "id": 7730027740, "name": "Dr. Mohanakumari Ayurveda Clinic", "amenity": "clinic", "healthcare": null, "operator": null, "addr:full": "Kalliyoor, Thiruvananthapuram" }, "geometry": { "type": "Point", "coordinates": [ 77.0193138, 8.4406772 ] } },
{ "type": "Feature", "properties": { "element": "node", "id": 7730027742, "name": "Dr. Zulfikar Ahamed", "amenity": "doctors", "healthcare": "doctor", "operator": null, "addr:full": "Murinjapalam" }, "geometry": { "type": "Point", "coordinates": [ 76.9320923, 8.5197528 ] } },
{ "type": "Feature", "properties": { "element": "node", "id": 7730027752, "name": "Dr. Parthasarathy's Homoeopathic Healing Centre", "amenity": "clinic", "healthcare": null, "operator": null, "addr:full": "Poojappura Main Road, Poojapura" }, "geometry": { "type": "Point", "coordinates": [ 76.9773086, 8.4952866 ] } },
{ "type": "Feature", "properties": { "element": "node", "id": 7730027753, "name": "Dr. M S Jayasekhar", "amenity": "doctors", "healthcare": null, "operator": null, "addr:full": "Kochar Road, Sasthamangalam" }, "geometry": { "type": "Point", "coordinates": [ 76.9725023, 8.5091634 ] } },
{ "type": "Feature", "properties": { "element": "node", "id": 7730027755, "name": "Amicus Plastic Surgery Clinic", "amenity": "clinic", "healthcare": "clinic", "operator": null, "addr:full": "Near Vydyuti Bhavan, Pattom" }, "geometry": { "type": "Point", "coordinates": [ 76.938089, 8.516368 ] } },
{ "type": "Feature", "properties": { "element": "node", "id": 7733014041, "name": "Dr. Roy Sanker", "amenity": "doctors", "healthcare": null, "operator": null, "addr:full": "Kallara" }, "geometry": { "type": "Point", "coordinates": [ 76.9382804, 8.7532698 ] } },
{ "type": "Feature", "properties": { "element": "node", "id": 7733014044, "name": "S.S Medical Centre", "amenity": "clinic", "healthcare": null, "operator": "Department of Health and Family Welfare", "addr:full": "Chanthavila" }, "geometry": { "type": "Point", "coordinates": [ 76.882541, 8.5906569 ] } },
{ "type": "Feature", "properties": { "element": "node", "id": 7733014046, "name": "Kerala Government Homeopathy Clinic", "amenity": "clinic", "healthcare": null, "operator": null, "addr:full": "Chanthavila" }, "geometry": { "type": "Point", "coordinates": [ 76.8774914, 8.5889021 ] } },
{ "type": "Feature", "properties": { "element": "node", "id": 7733014048, "name": "Shilajith Poly Clinic", "amenity": "clinic", "healthcare": null, "operator": null, "addr:full": "Kadinamkulam Road, Puthucurichy, Kadinamkulam" }, "geometry": { "type": "Point", "coordinates": [ 76.8149795, 8.6027353 ] } },
{ "type": "Feature", "properties": { "element": "node", "id": 7733014053, "name": "Palliative Clinic", "amenity": "clinic", "healthcare": null, "operator": null, "addr:full": "Pothencode" }, "geometry": { "type": "Point", "coordinates": [ 76.9008691, 8.6191093 ] } },
{ "type": "Feature", "properties": { "element": "node", "id": 7733014054, "name": "Dr. Noushad's Homeo Clinic", "amenity": "clinic", "healthcare": null, "operator": null, "addr:full": "Kaniyapuram" }, "geometry": { "type": "Point", "coordinates": [ 76.8592978, 8.5884183 ] } },
{ "type": "Feature", "properties": { "element": "node", "id": 7733014063, "name": "Essen Clinic", "amenity": "clinic", "healthcare": null, "operator": null, "addr:full": "Indeevaram, Muthuvila" }, "geometry": { "type": "Point", "coordinates": [ 76.9688806, 8.7113441 ] } },
{ "type": "Feature", "properties": { "element": "node", "id": 7733014064, "name": "Dr. Jackson D'Silva, Antonium", "amenity": "doctors", "healthcare": null, "operator": null, "addr:full": "Kazhakkoottam" }, "geometry": { "type": "Point", "coordinates": [ 76.8695597, 8.5773131 ] } },
{ "type": "Feature", "properties": { "element": "node", "id": 7733014067, "name": "Dr. Arun", "amenity": "doctors", "healthcare": null, "operator": null, "addr:full": "Shalom House, Panthalacode, Vattappara" }, "geometry": { "type": "Point", "coordinates": [ 76.929075, 8.609884 ] } },
{ "type": "Feature", "properties": { "element": "node", "id": 7733014068, "name": "Chirakkakam Clinic", "amenity": "clinic", "healthcare": null, "operator": null, "addr:full": "Andoorkonam" }, "geometry": { "type": "Point", "coordinates": [ 76.8776625, 8.6032046 ] } },
{ "type": "Feature", "properties": { "element": "node", "id": 7733014069, "name": "Dr. J Latha ENT Clinic", "amenity": "clinic", "healthcare": "clinic", "operator": null, "addr:full": "Kanyakulangara" }, "geometry": { "type": "Point", "coordinates": [ 76.9372501, 8.6309208 ] } },
{ "type": "Feature", "properties": { "element": "node", "id": 7733014074, "name": "Aalims Skin Care Clinic, Kilimanoor", "amenity": "clinic", "healthcare": null, "operator": null, "addr:full": "Kilimanoor Junction, Kilimanoor" }, "geometry": { "type": "Point", "coordinates": [ 76.880684, 8.771327 ] } },
{ "type": "Feature", "properties": { "element": "node", "id": 7733014075, "name": "Dr. Suresh Kumar", "amenity": "doctors", "healthcare": null, "operator": null, "addr:full": "Kazhakuttam, Kazhakkoottam" }, "geometry": { "type": "Point", "coordinates": [ 76.8733566, 8.5678158 ] } },
{ "type": "Feature", "properties": { "element": "node", "id": 7733014078, "name": "Zarah Clinic", "amenity": "clinic", "healthcare": null, "operator": null, "addr:full": "Kallambalam" }, "geometry": { "type": "Point", "coordinates": [ 76.7921, 8.7632279 ] } },
{ "type": "Feature", "properties": { "element": "node", "id": 7733014080, "name": "Ann's Dental Clinic", "amenity": "clinic", "healthcare": "clinic", "operator": null, "addr:full": "Njekadu Junction, Njekkad" }, "geometry": { "type": "Point", "coordinates": [ 76.7696848, 8.7528294 ] } },
{ "type": "Feature", "properties": { "element": "node", "id": 7733014085, "name": "St. John's Health Services", "amenity": "clinic", "healthcare": "clinic", "operator": null, "addr:full": "Pirappancode, Manikkal" }, "geometry": { "type": "Point", "coordinates": [ 76.91511, 8.6608799 ] } },
{ "type": "Feature", "properties": { "element": "node", "id": 7733014089, "name": "Dr. Pratheep", "amenity": "doctors", "healthcare": null, "operator": null, "addr:full": "Varkala" }, "geometry": { "type": "Point", "coordinates": [ 76.741092, 8.7284648 ] } },
{ "type": "Feature", "properties": { "element": "node", "id": 7733014094, "name": "Sree Pathi Siddha Ayurveda Marma Clinic", "amenity": "clinic", "healthcare": null, "operator": null, "addr:full": "Chittattumukku, Menamkulam" }, "geometry": { "type": "Point", "coordinates": [ 76.8560018, 8.5689545 ] } },
{ "type": "Feature", "properties": { "element": "node", "id": 7733014096, "name": "Dr. Faizy", "amenity": "doctors", "healthcare": null, "operator": null, "addr:full": "Kallambalam" }, "geometry": { "type": "Point", "coordinates": [ 76.7925841, 8.7648067 ] } },
{ "type": "Feature", "properties": { "element": "node", "id": 7733014097, "name": "Dr.Mohans Clinic", "amenity": "clinic", "healthcare": "clinic", "operator": null, "addr:full": "Chempakamangalam" }, "geometry": { "type": "Point", "coordinates": [ 76.843639, 8.6434789 ] } },
{ "type": "Feature", "properties": { "element": "node", "id": 7733014098, "name": "Dr.Shaj Memorial Relief Clinic", "amenity": "clinic", "healthcare": "clinic", "operator": null, "addr:full": "Venjarammoodu" }, "geometry": { "type": "Point", "coordinates": [ 76.9088031, 8.6794943 ] } },
{ "type": "Feature", "properties": { "element": "node", "id": 7733014101, "name": "Janatha Clinic and Ayurvedic Centre", "amenity": "clinic", "healthcare": null, "operator": "Department of health and Famiy Welfare", "addr:full": "Kulathoor" }, "geometry": { "type": "Point", "coordinates": [ 76.8864196, 8.5432206 ] } },
{ "type": "Feature", "properties": { "element": "node", "id": 7733014104, "name": "Sree Krishna Ayur Raksha Clinic & Panchakarma Centre", "amenity": "clinic", "healthcare": null, "operator": null, "addr:full": "Kazhakuttom, Menamkulam" }, "geometry": { "type": "Point", "coordinates": [ 76.8627056, 8.5611824 ] } },
{ "type": "Feature", "properties": { "element": "node", "id": 7733154010, "name": "Beees Physiotherapy Clinic", "amenity": "clinic", "healthcare": null, "operator": null, "addr:full": "Kuttichal" }, "geometry": { "type": "Point", "coordinates": [ 77.1022775, 8.5661504 ] } },
{ "type": "Feature", "properties": { "element": "node", "id": 7733154013, "name": "Dr. Prathapans Clinic", "amenity": "clinic", "healthcare": null, "operator": null, "addr:full": "Anappara, Vellarada" }, "geometry": { "type": "Point", "coordinates": [ 77.1946402, 8.4512484 ] } },
{ "type": "Feature", "properties": { "element": "node", "id": 7733154015, "name": "Dr. Balachandran's Homeo Clinic", "amenity": "clinic", "healthcare": null, "operator": null, "addr:full": "Neyyatinkara Road, Poovar" }, "geometry": { "type": "Point", "coordinates": [ 77.072786, 8.321969 ] } },
{ "type": "Feature", "properties": { "element": "node", "id": 7733154018, "name": "Love Shore Homoeopathy Clinic", "amenity": "clinic", "healthcare": null, "operator": null, "addr:full": "Gramam, Alummoodu, Neyyattinkara" }, "geometry": { "type": "Point", "coordinates": [ 77.091695, 8.3966112 ] } },
{ "type": "Feature", "properties": { "element": "node", "id": 7733154027, "name": "Ayurjeni Ayurvedic Clinic", "amenity": "clinic", "healthcare": null, "operator": null, "addr:full": "Thiruvananthapuram-Ponmudi Road, Tholicode" }, "geometry": { "type": "Point", "coordinates": [ 77.0556943, 8.644808 ] } },
{ "type": "Feature", "properties": { "element": "node", "id": 7733154033, "name": "Government Ayurveda Dispensary, Aruvipuram", "amenity": null, "healthcare": "alternative", "operator": "Government", "addr:full": "Thiruvananthapuram" }, "geometry": { "type": "Point", "coordinates": [ 77.0972563, 8.428997 ] } },
{ "type": "Feature", "properties": { "element": "node", "id": 7733154037, "name": "Pranah Homeo Clinic", "amenity": "clinic", "healthcare": null, "operator": null, "addr:full": "Perumpazhuthoor" }, "geometry": { "type": "Point", "coordinates": [ 77.0758336, 8.4352498 ] } },
{ "type": "Feature", "properties": { "element": "node", "id": 7733154039, "name": "Shalom Clinic", "amenity": "clinic", "healthcare": null, "operator": null, "addr:full": null }, "geometry": { "type": "Point", "coordinates": [ 77.1087978, 8.4197374 ] } },
{ "type": "Feature", "properties": { "element": "node", "id": 7733154041, "name": "Nims Nano Clinic", "amenity": "clinic", "healthcare": null, "operator": null, "addr:full": "Attukal, Cheruveli" }, "geometry": { "type": "Point", "coordinates": [ 77.0215322, 8.645313 ] } },
{ "type": "Feature", "properties": { "element": "node", "id": 7733154042, "name": "Bismi Clinical", "amenity": "clinic", "healthcare": null, "operator": null, "addr:full": "Tholicode" }, "geometry": { "type": "Point", "coordinates": [ 77.0556063, 8.646222 ] } },
{ "type": "Feature", "properties": { "element": "node", "id": 7733154043, "name": "Government Ayurveda Dispensary, Nedumangad", "amenity": null, "healthcare": "alternative", "operator": "Government", "addr:full": "Uzhamalakkal" }, "geometry": { "type": "Point", "coordinates": [ 77.053504, 8.597371 ] } },
{ "type": "Feature", "properties": { "element": "node", "id": 7733154044, "name": "Dr. Aslam's Kids Care Clinic", "amenity": "clinic", "healthcare": null, "operator": null, "addr:full": "Vadakkekotta Road, Alummoodu, Neyyattinkara" }, "geometry": { "type": "Point", "coordinates": [ 77.086966, 8.4042045 ] } },
{ "type": "Feature", "properties": { "element": "node", "id": 7733154045, "name": "Shalom Clinic", "amenity": "clinic", "healthcare": null, "operator": null, "addr:full": "Parasuvaikkal" }, "geometry": { "type": "Point", "coordinates": [ 77.1598227, 8.3806301 ] } },
{ "type": "Feature", "properties": { "element": "node", "id": 7733154055, "name": "Cini Homoeo Clinic", "amenity": "clinic", "healthcare": "clinic", "operator": null, "addr:full": "Peringammala" }, "geometry": { "type": "Point", "coordinates": [ 77.0437635, 8.726106 ] } },
{ "type": "Feature", "properties": { "element": "node", "id": 7733154072, "name": "Govt. Ayurveda Hospital Neyyattinkara", "amenity": null, "healthcare": "alternative", "operator": "Government", "addr:full": "Moonnukallinmoodu, Neyyattinkara" }, "geometry": { "type": "Point", "coordinates": [ 77.075777, 8.409304 ] } },
{ "type": "Feature", "properties": { "element": "node", "id": 7733154074, "name": "Bini Homeo Clinic", "amenity": "clinic", "healthcare": null, "operator": null, "addr:full": "Pazhakutty, Nedumangad" }, "geometry": { "type": "Point", "coordinates": [ 76.9977774, 8.6127813 ] } },
{ "type": "Feature", "properties": { "element": "node", "id": 7737711769, "name": null, "amenity": "post_office", "healthcare": null, "operator": "Government", "addr:full": null }, "geometry": { "type": "Point", "coordinates": [ 76.8634065, 8.6547272 ] } },
{ "type": "Feature", "properties": { "element": "node", "id": 7746204778, "name": "Government Homeo Clinic", "amenity": "clinic", "healthcare": "clinic", "operator": null, "addr:full": null }, "geometry": { "type": "Point", "coordinates": [ 76.7581619, 8.7240809 ] } },
{ "type": "Feature", "properties": { "element": "node", "id": 7746271579, "name": "Ayurvedic Dispensary", "amenity": "doctors", "healthcare": "doctor", "operator": null, "addr:full": null }, "geometry": { "type": "Point", "coordinates": [ 76.7583903, 8.7239889 ] } },
{ "type": "Feature", "properties": { "element": "node", "id": 7919678849, "name": "Modern Smile Care And Health Care", "amenity": "clinic", "healthcare": "clinic", "operator": null, "addr:full": null }, "geometry": { "type": "Point", "coordinates": [ 76.9759869, 8.5521391 ] } },
{ "type": "Feature", "properties": { "element": "node", "id": 7953721382, "name": "Health Sub Center, Eanikkara", "amenity": null, "healthcare": "yes", "operator": "Government", "addr:full": null }, "geometry": { "type": "Point", "coordinates": [ 76.978909, 8.558342 ] } },
{ "type": "Feature", "properties": { "element": "node", "id": 8007177336, "name": "Smile Denta Clinic", "amenity": "clinic", "healthcare": "clinic", "operator": null, "addr:full": null }, "geometry": { "type": "Point", "coordinates": [ 77.0834699, 8.5086652 ] } },
{ "type": "Feature", "properties": { "element": "node", "id": 8007184988, "name": "Precise Eye Hospital", "amenity": "clinic", "healthcare": "clinic", "operator": null, "addr:full": null }, "geometry": { "type": "Point", "coordinates": [ 77.083461, 8.5086155 ] } },
{ "type": "Feature", "properties": { "element": "node", "id": 8064921629, "name": "Primary Health Centre Peringamala", "amenity": null, "healthcare": "centre", "operator": "Government", "addr:full": null }, "geometry": { "type": "Point", "coordinates": [ 77.0477308, 8.7305614 ] } },
{ "type": "Feature", "properties": { "element": "node", "id": 8080795282, "name": "Ayurveda Hospital, Vazhichal", "amenity": "clinic", "healthcare": "clinic", "operator": "Government", "addr:full": null }, "geometry": { "type": "Point", "coordinates": [ 77.1578518, 8.506364 ] } },
{ "type": "Feature", "properties": { "element": "node", "id": 8323765281, "name": "Govt Ayurveda Dispensary ,Ottoor", "amenity": null, "healthcare": "clinic", "operator": null, "addr:full": null }, "geometry": { "type": "Point", "coordinates": [ 76.7891033, 8.7446259 ] } },
{ "type": "Feature", "properties": { "element": "node", "id": 8327079942, "name": "Dr. Sanal Clinic", "amenity": "clinic", "healthcare": "clinic", "operator": "Dr. Sanal", "addr:full": null }, "geometry": { "type": "Point", "coordinates": [ 76.9990817, 8.498045 ] } },
{ "type": "Feature", "properties": { "element": "node", "id": 8327096341, "name": null, "amenity": "clinic", "healthcare": "clinic", "operator": "Dr. Sunil Prasobh", "addr:full": null }, "geometry": { "type": "Point", "coordinates": [ 76.9971505, 8.4955338 ] } },
{ "type": "Feature", "properties": { "element": "node", "id": 8334287307, "name": "Dr Praveen", "amenity": "doctors", "healthcare": "doctor", "operator": null, "addr:full": null }, "geometry": { "type": "Point", "coordinates": [ 76.9991507, 8.4986663 ] } },
{ "type": "Feature", "properties": { "element": "node", "id": 8431672699, "name": "ration shop", "amenity": null, "healthcare": null, "operator": "Government", "addr:full": null }, "geometry": { "type": "Point", "coordinates": [ 76.7451894, 8.7506265 ] } },
{ "type": "Feature", "properties": { "element": "node", "id": 8566905789, "name": null, "amenity": "clinic", "healthcare": "clinic", "operator": "DENTAL CLINIC", "addr:full": null }, "geometry": { "type": "Point", "coordinates": [ 77.0030154, 8.4325518 ] } },
{ "type": "Feature", "properties": { "element": "node", "id": 8567208720, "name": "Kerala State Ration Distribution Shop", "amenity": null, "healthcare": null, "operator": "Government", "addr:full": null }, "geometry": { "type": "Point", "coordinates": [ 77.0739363, 8.4014636 ] } },
{ "type": "Feature", "properties": { "element": "node", "id": 8567216370, "name": "Primary Health Centre", "amenity": null, "healthcare": "centre", "operator": "Government", "addr:full": null }, "geometry": { "type": "Point", "coordinates": [ 77.0733262, 8.3999645 ] } },
{ "type": "Feature", "properties": { "element": "node", "id": 8570484604, "name": "Government  Lower Primary School, Manchanpara", "amenity": "school", "healthcare": null, "operator": "Government", "addr:full": null }, "geometry": { "type": "Point", "coordinates": [ 77.0032461, 8.5367931 ] } },
{ "type": "Feature", "properties": { "element": "node", "id": 8574115781, "name": "Government LPS Chembanacode", "amenity": "school", "healthcare": null, "operator": "Government", "addr:full": null }, "geometry": { "type": "Point", "coordinates": [ 77.1115713, 8.4773113 ] } },
{ "type": "Feature", "properties": { "element": "node", "id": 8574654049, "name": "Sharma's Clinic", "amenity": "clinic", "healthcare": "clinic", "operator": null, "addr:full": null }, "geometry": { "type": "Point", "coordinates": [ 76.6964441, 8.763664 ] } },
{ "type": "Feature", "properties": { "element": "node", "id": 8609408651, "name": "Government Homeo Clinic", "amenity": "clinic", "healthcare": "clinic", "operator": null, "addr:full": null }, "geometry": { "type": "Point", "coordinates": [ 77.0169005, 8.6530984 ] } },
{ "type": "Feature", "properties": { "element": "node", "id": 8609408655, "name": "Supplyco Ration Shop", "amenity": null, "healthcare": null, "operator": "Government", "addr:full": null }, "geometry": { "type": "Point", "coordinates": [ 77.0136237, 8.6558658 ] } },
{ "type": "Feature", "properties": { "element": "node", "id": 8609408678, "name": "Ayurvedha Hospitals", "amenity": "clinic", "healthcare": "clinic", "operator": null, "addr:full": null }, "geometry": { "type": "Point", "coordinates": [ 77.0066997, 8.6739874 ] } },
{ "type": "Feature", "properties": { "element": "node", "id": 8624361864, "name": "Thuruthel", "amenity": "clinic", "healthcare": "clinic", "operator": null, "addr:full": null }, "geometry": { "type": "Point", "coordinates": [ 77.1914008, 8.5019415 ] } },
{ "type": "Feature", "properties": { "element": "node", "id": 8634189460, "name": "Anganwadi", "amenity": "childcare", "healthcare": null, "operator": "Government", "addr:full": null }, "geometry": { "type": "Point", "coordinates": [ 77.0412957, 8.5042537 ] } },
{ "type": "Feature", "properties": { "element": "node", "id": 8641975856, "name": "Sub Centre, Vilavoorkal", "amenity": null, "healthcare": "clinic", "operator": "government", "addr:full": null }, "geometry": { "type": "Point", "coordinates": [ 77.0096568, 8.5007395 ] } },
{ "type": "Feature", "properties": { "element": "node", "id": 8657986822, "name": "Sivabhadra Ayurveda Clinic", "amenity": "clinic", "healthcare": "clinic", "operator": null, "addr:full": null }, "geometry": { "type": "Point", "coordinates": [ 77.0650964, 8.3925704 ] } },
{ "type": "Feature", "properties": { "element": "node", "id": 8678028507, "name": "Vineyard Dental Hospital", "amenity": "clinic", "healthcare": "clinic", "operator": null, "addr:full": null }, "geometry": { "type": "Point", "coordinates": [ 77.0470258, 8.3808763 ] } },
{ "type": "Feature", "properties": { "element": "node", "id": 8678032402, "name": "Niya Multispeciality Dental Care", "amenity": "clinic", "healthcare": "clinic", "operator": null, "addr:full": null }, "geometry": { "type": "Point", "coordinates": [ 77.0463482, 8.377852 ] } },
{ "type": "Feature", "properties": { "element": "node", "id": 8678039739, "name": "Sneha Sudha Eye Clinic", "amenity": "clinic", "healthcare": "clinic", "operator": null, "addr:full": null }, "geometry": { "type": "Point", "coordinates": [ 77.046895, 8.3805466 ] } },
{ "type": "Feature", "properties": { "element": "node", "id": 8684634839, "name": "Ayurveda Dispensary", "amenity": "clinic", "healthcare": "clinic", "operator": null, "addr:full": null }, "geometry": { "type": "Point", "coordinates": [ 76.7408087, 8.6933799 ] } },
{ "type": "Feature", "properties": { "element": "node", "id": 8684644622, "name": "Government Homeo Dispensary, Kaikkara", "amenity": "clinic", "healthcare": "clinic", "operator": null, "addr:full": null }, "geometry": { "type": "Point", "coordinates": [ 76.7479764, 8.6850628 ] } },
{ "type": "Feature", "properties": { "element": "node", "id": 8700910046, "name": "Government Ayurveda Hospital, Kizhuvilam", "amenity": null, "healthcare": "alternative", "operator": "Government", "addr:full": null }, "geometry": { "type": "Point", "coordinates": [ 76.8198442, 8.6603953 ] } },
{ "type": "Feature", "properties": { "element": "node", "id": 8710095595, "name": "Sowparnika Dental Clinic", "amenity": "clinic", "healthcare": "clinic", "operator": null, "addr:full": null }, "geometry": { "type": "Point", "coordinates": [ 76.9425871, 8.4860402 ] } },
{ "type": "Feature", "properties": { "element": "node", "id": 8728705464, "name": "Homeo dispensary", "amenity": "clinic", "healthcare": "clinic", "operator": null, "addr:full": null }, "geometry": { "type": "Point", "coordinates": [ 77.0299622, 8.390701 ] } },
{ "type": "Feature", "properties": { "element": "node", "id": 8829536243, "name": "Government Ayurveda Marma Hospital", "amenity": null, "healthcare": "alternative", "operator": "Government", "addr:full": null }, "geometry": { "type": "Point", "coordinates": [ 77.0472958, 8.3551711 ] } },
{ "type": "Feature", "properties": { "element": "node", "id": 8863460058, "name": null, "amenity": "clinic", "healthcare": "clinic", "operator": null, "addr:full": null }, "geometry": { "type": "Point", "coordinates": [ 76.8447014, 8.7821438 ] } },
{ "type": "Feature", "properties": { "element": "node", "id": 8879176714, "name": "Insight Eye Hospitsl", "amenity": "doctors", "healthcare": "doctor", "operator": "Dr Anup", "addr:full": null }, "geometry": { "type": "Point", "coordinates": [ 76.7201792, 8.7325747 ] } },
{ "type": "Feature", "properties": { "element": "node", "id": 8889637976, "name": "Kerala State Road Transport Petrol Pump", "amenity": "fuel", "healthcare": null, "operator": "Government", "addr:full": null }, "geometry": { "type": "Point", "coordinates": [ 77.0880423, 8.3968738 ] } },
{ "type": "Feature", "properties": { "element": "node", "id": 8900555043, "name": "80 - Karinjavayal Anganavadi", "amenity": "childcare", "healthcare": null, "operator": "Government", "addr:full": null }, "geometry": { "type": "Point", "coordinates": [ 76.848995, 8.5774704 ] } },
{ "type": "Feature", "properties": { "element": "node", "id": 8900575690, "name": "Kavottumukku Anganavadi", "amenity": "childcare", "healthcare": null, "operator": "Government", "addr:full": null }, "geometry": { "type": "Point", "coordinates": [ 76.8546389, 8.5795116 ] } },
{ "type": "Feature", "properties": { "element": "node", "id": 8906986349, "name": "Ottapana Anganavadi", "amenity": "childcare", "healthcare": null, "operator": "Government", "addr:full": null }, "geometry": { "type": "Point", "coordinates": [ 76.8003788, 8.6176595 ] } },
{ "type": "Feature", "properties": { "element": "node", "id": 8906986350, "name": "Cheramanthururthu Anganavadi", "amenity": "childcare", "healthcare": null, "operator": "Government", "addr:full": null }, "geometry": { "type": "Point", "coordinates": [ 76.8029198, 8.6186664 ] } },
{ "type": "Feature", "properties": { "element": "node", "id": 8907244577, "name": "Puthukurichy Anganavadi - 61", "amenity": "childcare", "healthcare": null, "operator": "Government", "addr:full": null }, "geometry": { "type": "Point", "coordinates": [ 76.8019036, 8.6149885 ] } },
{ "type": "Feature", "properties": { "element": "node", "id": 8909500276, "name": "Government Homeo Dispensary, Poovachal", "amenity": "clinic", "healthcare": "clinic", "operator": null, "addr:full": null }, "geometry": { "type": "Point", "coordinates": [ 77.0816463, 8.5411434 ] } },
{ "type": "Feature", "properties": { "element": "node", "id": 8909500277, "name": "Government Ayurnveda Dispensary, Poovachal", "amenity": "clinic", "healthcare": "clinic", "operator": null, "addr:full": null }, "geometry": { "type": "Point", "coordinates": [ 77.0832361, 8.5387084 ] } },
{ "type": "Feature", "properties": { "element": "node", "id": 8916560207, "name": "106 - Vadakkevila", "amenity": "childcare", "healthcare": null, "operator": "Government", "addr:full": null }, "geometry": { "type": "Point", "coordinates": [ 76.8110198, 8.6103463 ] } },
{ "type": "Feature", "properties": { "element": "node", "id": 8916560209, "name": "Sujitha Memorial Cheramanthuruthu Sub Center Kandavila", "amenity": "clinic", "healthcare": "clinic", "operator": "Government", "addr:full": null }, "geometry": { "type": "Point", "coordinates": [ 76.8245617, 8.5987002 ] } },
{ "type": "Feature", "properties": { "element": "node", "id": 8916560210, "name": "73- Kandavila Anganavadi", "amenity": "childcare", "healthcare": null, "operator": "Government", "addr:full": null }, "geometry": { "type": "Point", "coordinates": [ 76.8245618, 8.5986561 ] } },
{ "type": "Feature", "properties": { "element": "node", "id": 8916560215, "name": "103 - Kandavila", "amenity": "childcare", "healthcare": null, "operator": "Government", "addr:full": null }, "geometry": { "type": "Point", "coordinates": [ 76.8280959, 8.5942871 ] } },
{ "type": "Feature", "properties": { "element": "node", "id": 8916579557, "name": "69 - Puthuval Anganavadi", "amenity": "childcare", "healthcare": null, "operator": "Government", "addr:full": null }, "geometry": { "type": "Point", "coordinates": [ 76.8194481, 8.5996269 ] } },
{ "type": "Feature", "properties": { "element": "node", "id": 8916579558, "name": "Primary Health Care Sub Center Puthuval", "amenity": "clinic", "healthcare": "clinic", "operator": "Government", "addr:full": null }, "geometry": { "type": "Point", "coordinates": [ 76.8195667, 8.5995584 ] } },
{ "type": "Feature", "properties": { "element": "node", "id": 8916579563, "name": "72 - Pazhanjira Anganavadi", "amenity": "childcare", "healthcare": null, "operator": "Government", "addr:full": null }, "geometry": { "type": "Point", "coordinates": [ 76.8255064, 8.5944128 ] } },
{ "type": "Feature", "properties": { "element": "node", "id": 8916630322, "name": "101 - Vettuthura Channankara Ankanavadi", "amenity": "childcare", "healthcare": null, "operator": "Government", "addr:full": null }, "geometry": { "type": "Point", "coordinates": [ 76.8291873, 8.5862119 ] } },
{ "type": "Feature", "properties": { "element": "node", "id": 8916646110, "name": "91- Thekkemukku Anganavadi", "amenity": "childcare", "healthcare": null, "operator": "Government", "addr:full": null }, "geometry": { "type": "Point", "coordinates": [ 76.8699892, 8.5613325 ] } },
{ "type": "Feature", "properties": { "element": "node", "id": 8916646115, "name": "Anganwadi", "amenity": "childcare", "healthcare": null, "operator": "Government", "addr:full": null }, "geometry": { "type": "Point", "coordinates": [ 76.8528156, 8.5541372 ] } },
{ "type": "Feature", "properties": { "element": "node", "id": 8916668632, "name": "Channankara Anganavadi", "amenity": "childcare", "healthcare": null, "operator": "Government", "addr:full": null }, "geometry": { "type": "Point", "coordinates": [ 76.8336335, 8.5858443 ] } },
{ "type": "Feature", "properties": { "element": "node", "id": 8916668645, "name": "77- Anakkapilla Anganavadi", "amenity": "childcare", "healthcare": null, "operator": "Government", "addr:full": null }, "geometry": { "type": "Point", "coordinates": [ 76.8366499, 8.5809442 ] } },
{ "type": "Feature", "properties": { "element": "node", "id": 8916668646, "name": "78 - Pallinada Anganavadi", "amenity": "childcare", "healthcare": null, "operator": "Government", "addr:full": null }, "geometry": { "type": "Point", "coordinates": [ 76.8406481, 8.5848155 ] } },
{ "type": "Feature", "properties": { "element": "node", "id": 8916682793, "name": "108- Java Cottage Anganavadi", "amenity": "childcare", "healthcare": null, "operator": "Government", "addr:full": null }, "geometry": { "type": "Point", "coordinates": [ 76.8437278, 8.5822384 ] } },
{ "type": "Feature", "properties": { "element": "node", "id": 8916682798, "name": "85 - Kalpana Anganavadi", "amenity": "childcare", "healthcare": null, "operator": "Government", "addr:full": null }, "geometry": { "type": "Point", "coordinates": [ 76.8521102, 8.5678517 ] } },
{ "type": "Feature", "properties": { "element": "node", "id": 8916728029, "name": "Puthenthope Anganavadi", "amenity": "childcare", "healthcare": null, "operator": "Government", "addr:full": null }, "geometry": { "type": "Point", "coordinates": [ 76.8417258, 8.5690582 ] } },
{ "type": "Feature", "properties": { "element": "node", "id": 8919302119, "name": "79- Chiraykkal Anganavadi", "amenity": "childcare", "healthcare": null, "operator": "Government", "addr:full": null }, "geometry": { "type": "Point", "coordinates": [ 76.8440766, 8.5801003 ] } },
{ "type": "Feature", "properties": { "element": "node", "id": 8919302120, "name": "89- Chiraykkal Anganavadi", "amenity": "childcare", "healthcare": null, "operator": "Government", "addr:full": null }, "geometry": { "type": "Point", "coordinates": [ 76.8410314, 8.579907 ] } },
{ "type": "Feature", "properties": { "element": "node", "id": 8919302133, "name": "96- Mundukari Anganavadi", "amenity": "childcare", "healthcare": null, "operator": "Government", "addr:full": null }, "geometry": { "type": "Point", "coordinates": [ 76.8586933, 8.5710554 ] } },
{ "type": "Feature", "properties": { "element": "node", "id": 8919302134, "name": "83- Menamkulam Anganavadi", "amenity": "childcare", "healthcare": null, "operator": "Government", "addr:full": null }, "geometry": { "type": "Point", "coordinates": [ 76.8575744, 8.5675969 ] } },
{ "type": "Feature", "properties": { "element": "node", "id": 8919302135, "name": "94 - Kinfra Thumba Anganavadi", "amenity": "childcare", "healthcare": null, "operator": "Government", "addr:full": null }, "geometry": { "type": "Point", "coordinates": [ 76.8570666, 8.5566415 ] } },
{ "type": "Feature", "properties": { "element": "node", "id": 8919305993, "name": "Anganwadi", "amenity": "childcare", "healthcare": null, "operator": "Government", "addr:full": null }, "geometry": { "type": "Point", "coordinates": [ 76.8149382, 8.5992065 ] } },
{ "type": "Feature", "properties": { "element": "node", "id": 8919339938, "name": "95 - Pallithura Anganavadi", "amenity": "childcare", "healthcare": null, "operator": "Government", "addr:full": null }, "geometry": { "type": "Point", "coordinates": [ 76.8586224, 8.548668 ] } },
{ "type": "Feature", "properties": { "element": "node", "id": 8919339939, "name": "109 - Puthenthope Anganavadi", "amenity": "childcare", "healthcare": null, "operator": "Government", "addr:full": null }, "geometry": { "type": "Point", "coordinates": [ 76.8390122, 8.5758563 ] } },
{ "type": "Feature", "properties": { "element": "node", "id": 8919339944, "name": "70 - Maryanadu Anganavadi", "amenity": "childcare", "healthcare": null, "operator": "Government", "addr:full": null }, "geometry": { "type": "Point", "coordinates": [ 76.8162056, 8.6014445 ] } },
{ "type": "Feature", "properties": { "element": "node", "id": 8919339951, "name": "62 - Kadinamkulam Anganavadi", "amenity": "childcare", "healthcare": null, "operator": "Government", "addr:full": null }, "geometry": { "type": "Point", "coordinates": [ 76.8195252, 8.6009119 ] } },
{ "type": "Feature", "properties": { "element": "node", "id": 8922898489, "name": "Government Ayurveda Hospital, Kottoot", "amenity": "clinic", "healthcare": "clinic", "operator": null, "addr:full": null }, "geometry": { "type": "Point", "coordinates": [ 77.1456523, 8.5678268 ] } },
{ "type": "Feature", "properties": { "element": "node", "id": 8941298364, "name": "Government Ayurveda Dispensary, Kallara", "amenity": "clinic", "healthcare": "clinic", "operator": null, "addr:full": null }, "geometry": { "type": "Point", "coordinates": [ 76.9756819, 8.7025543 ] } },
{ "type": "Feature", "properties": { "element": "node", "id": 8977924804, "name": null, "amenity": null, "healthcare": null, "operator": "Government", "addr:full": null }, "geometry": { "type": "Point", "coordinates": [ 77.0543256, 8.3287121 ] } },
{ "type": "Feature", "properties": { "element": "node", "id": 8987498161, "name": null, "amenity": null, "healthcare": null, "operator": "Government", "addr:full": null }, "geometry": { "type": "Point", "coordinates": [ 77.0796526, 8.3277828 ] } },
{ "type": "Feature", "properties": { "element": "node", "id": 8987498166, "name": "St.Jacobs Lower Primery School", "amenity": "school", "healthcare": null, "operator": "Government", "addr:full": null }, "geometry": { "type": "Point", "coordinates": [ 77.0867525, 8.3411798 ] } },
{ "type": "Feature", "properties": { "element": "node", "id": 8987498171, "name": "Ration Shop 520,Thirupuram", "amenity": null, "healthcare": null, "operator": "Government", "addr:full": null }, "geometry": { "type": "Point", "coordinates": [ 77.0834737, 8.3460289 ] } },
{ "type": "Feature", "properties": { "element": "node", "id": 8987498172, "name": "Ration Shop 426,Thirupuram", "amenity": null, "healthcare": null, "operator": "Government", "addr:full": null }, "geometry": { "type": "Point", "coordinates": [ 77.0774828, 8.3494937 ] } },
{ "type": "Feature", "properties": { "element": "node", "id": 8987649205, "name": "Ration Shop ADR435", "amenity": null, "healthcare": null, "operator": "Government", "addr:full": null }, "geometry": { "type": "Point", "coordinates": [ 77.0744127, 8.3242435 ] } },
{ "type": "Feature", "properties": { "element": "node", "id": 8987649206, "name": "Ration Shop ADR 325", "amenity": null, "healthcare": null, "operator": "Government", "addr:full": null }, "geometry": { "type": "Point", "coordinates": [ 77.0748761, 8.3247234 ] } },
{ "type": "Feature", "properties": { "element": "node", "id": 8987712643, "name": "Government Veterinary Hospital Poovar", "amenity": "veterinary", "healthcare": null, "operator": "Government", "addr:full": null }, "geometry": { "type": "Point", "coordinates": [ 77.0764254, 8.3334749 ] } },
{ "type": "Feature", "properties": { "element": "node", "id": 8988258274, "name": "Ration Shop ARD 332", "amenity": null, "healthcare": null, "operator": "Government", "addr:full": null }, "geometry": { "type": "Point", "coordinates": [ 77.0610136, 8.3323504 ] } },
{ "type": "Feature", "properties": { "element": "node", "id": 8988258275, "name": "Ration Shop ARD 468", "amenity": null, "healthcare": null, "operator": "Government", "addr:full": null }, "geometry": { "type": "Point", "coordinates": [ 77.0666248, 8.321772 ] } },
{ "type": "Feature", "properties": { "element": "node", "id": 8988258276, "name": "Rationshop", "amenity": null, "healthcare": null, "operator": "Government", "addr:full": null }, "geometry": { "type": "Point", "coordinates": [ 77.0677961, 8.3211174 ] } },
{ "type": "Feature", "properties": { "element": "node", "id": 8988258277, "name": "Government  Higher Secondary school, poovar", "amenity": "school", "healthcare": null, "operator": "Government", "addr:full": null }, "geometry": { "type": "Point", "coordinates": [ 77.0701752, 8.3192198 ] } },
{ "type": "Feature", "properties": { "element": "node", "id": 8988258278, "name": "Ration Shop", "amenity": null, "healthcare": null, "operator": "Government", "addr:full": null }, "geometry": { "type": "Point", "coordinates": [ 77.0708185, 8.3182833 ] } },
{ "type": "Feature", "properties": { "element": "node", "id": 8993426225, "name": "shanthigiri vydhyashala karumkulam", "amenity": "clinic", "healthcare": "clinic", "operator": null, "addr:full": null }, "geometry": { "type": "Point", "coordinates": [ 77.0533221, 8.3294944 ] } },
{ "type": "Feature", "properties": { "element": "node", "id": 9001187691, "name": "Soumya Hospital", "amenity": "clinic", "healthcare": "clinic", "operator": "Department of Health and Family Welfare", "addr:full": null }, "geometry": { "type": "Point", "coordinates": [ 76.9839795, 8.7634761 ] } },
{ "type": "Feature", "properties": { "element": "node", "id": 9003063353, "name": "Star Clinic", "amenity": "clinic", "healthcare": "clinic", "operator": "Department of Health and Family Welafre", "addr:full": null }, "geometry": { "type": "Point", "coordinates": [ 76.945687, 8.4404318 ] } },
{ "type": "Feature", "properties": { "element": "node", "id": 9003063354, "name": "Surgery Clinic And Speciality Hospital Varkala", "amenity": "clinic", "healthcare": "clinic", "operator": "Department of Health and Family Welfare", "addr:full": null }, "geometry": { "type": "Point", "coordinates": [ 76.9456862, 8.4405198 ] } },
{ "type": "Feature", "properties": { "element": "node", "id": 9003063360, "name": "Dr. Kashi's Hospital", "amenity": "clinic", "healthcare": "clinic", "operator": "Department of Health and Family Welfare", "addr:full": null }, "geometry": { "type": "Point", "coordinates": [ 76.9675536, 8.5114461 ] } },
{ "type": "Feature", "properties": { "element": "node", "id": 9003063361, "name": "Dr. Agarwals Hospital", "amenity": "clinic", "healthcare": "clinic", "operator": "Department of Health and Family Welfare", "addr:full": null }, "geometry": { "type": "Point", "coordinates": [ 76.9630664, 8.5114983 ] } },
{ "type": "Feature", "properties": { "element": "node", "id": 9003063362, "name": "Prasad Clinic", "amenity": "clinic", "healthcare": "clinic", "operator": "department Of Health and Family Welfare", "addr:full": null }, "geometry": { "type": "Point", "coordinates": [ 76.9494594, 8.5107673 ] } },
{ "type": "Feature", "properties": { "element": "node", "id": 9003063363, "name": "Precise Eye Hospital", "amenity": "clinic", "healthcare": "clinic", "operator": "Department of Health and Family Welfare", "addr:full": null }, "geometry": { "type": "Point", "coordinates": [ 76.9488596, 8.5100331 ] } },
{ "type": "Feature", "properties": { "element": "node", "id": 9003063364, "name": "Healing Touch Clinic", "amenity": "clinic", "healthcare": "clinic", "operator": "Department of Health and Family Welafre", "addr:full": null }, "geometry": { "type": "Point", "coordinates": [ 76.9533037, 8.5239379 ] } },
{ "type": "Feature", "properties": { "element": "node", "id": 9003063365, "name": "Karunya Poly Clinic", "amenity": "clinic", "healthcare": "clinic", "operator": "Department of Health and Family Welfare", "addr:full": null }, "geometry": { "type": "Point", "coordinates": [ 76.9869449, 8.5465384 ] } },
{ "type": "Feature", "properties": { "element": "node", "id": 9003063366, "name": "Gayathri Clinic", "amenity": "clinic", "healthcare": "clinic", "operator": "Department of Health and Family Welfare", "addr:full": null }, "geometry": { "type": "Point", "coordinates": [ 76.8323408, 8.6138905 ] } },
{ "type": "Feature", "properties": { "element": "node", "id": 9035522180, "name": "Dr.Archa's Dental clinic", "amenity": "clinic", "healthcare": "clinic", "operator": null, "addr:full": null }, "geometry": { "type": "Point", "coordinates": [ 77.1252152, 8.4925379 ] } },
{ "type": "Feature", "properties": { "element": "node", "id": 9038272844, "name": "PHC", "amenity": "clinic", "healthcare": "clinic", "operator": null, "addr:full": null }, "geometry": { "type": "Point", "coordinates": [ 77.1220743, 8.4377063 ] } },
{ "type": "Feature", "properties": { "element": "node", "id": 9042477988, "name": "Anganwadi", "amenity": "childcare", "healthcare": null, "operator": "Government", "addr:full": null }, "geometry": { "type": "Point", "coordinates": [ 77.1409185, 8.4884275 ] } },
{ "type": "Feature", "properties": { "element": "node", "id": 9042608175, "name": "PHC", "amenity": "clinic", "healthcare": "clinic", "operator": null, "addr:full": null }, "geometry": { "type": "Point", "coordinates": [ 77.0997475, 8.4290638 ] } },
{ "type": "Feature", "properties": { "element": "node", "id": 9043715954, "name": "Anganwadi", "amenity": "childcare", "healthcare": null, "operator": "Government", "addr:full": null }, "geometry": { "type": "Point", "coordinates": [ 77.1305161, 8.4841828 ] } },
{ "type": "Feature", "properties": { "element": "node", "id": 9043886034, "name": "Dental Clinic", "amenity": "clinic", "healthcare": "clinic", "operator": null, "addr:full": null }, "geometry": { "type": "Point", "coordinates": [ 77.1278035, 8.5107124 ] } },
{ "type": "Feature", "properties": { "element": "node", "id": 9043935621, "name": "Anganwadi", "amenity": "childcare", "healthcare": null, "operator": "Government", "addr:full": null }, "geometry": { "type": "Point", "coordinates": [ 77.1399407, 8.5090715 ] } },
{ "type": "Feature", "properties": { "element": "node", "id": 9048607733, "name": "Anganwadi", "amenity": "childcare", "healthcare": null, "operator": "Government", "addr:full": null }, "geometry": { "type": "Point", "coordinates": [ 77.1240021, 8.496994 ] } },
{ "type": "Feature", "properties": { "element": "node", "id": 9048609936, "name": "Anganwadi", "amenity": "childcare", "healthcare": null, "operator": "Government", "addr:full": null }, "geometry": { "type": "Point", "coordinates": [ 77.1216984, 8.4985087 ] } },
{ "type": "Feature", "properties": { "element": "node", "id": 9048858623, "name": "Sree Ramakrishna Health Center", "amenity": null, "healthcare": "clinic", "operator": null, "addr:full": null }, "geometry": { "type": "Point", "coordinates": [ 77.1464973, 8.5149677 ] } },
{ "type": "Feature", "properties": { "element": "node", "id": 9094928582, "name": "C J M Clinic", "amenity": "clinic", "healthcare": "clinic", "operator": null, "addr:full": null }, "geometry": { "type": "Point", "coordinates": [ 77.1346419, 8.4766498 ] } },
{ "type": "Feature", "properties": { "element": "node", "id": 9094979578, "name": "Shakthi Hospital", "amenity": "clinic", "healthcare": "clinic", "operator": null, "addr:full": null }, "geometry": { "type": "Point", "coordinates": [ 77.1216051, 8.4629199 ] } },
{ "type": "Feature", "properties": { "element": "node", "id": 9099963726, "name": "Sneha Clinic Chemboor", "amenity": "clinic", "healthcare": "clinic", "operator": null, "addr:full": null }, "geometry": { "type": "Point", "coordinates": [ 77.1528594, 8.4758716 ] } },
{ "type": "Feature", "properties": { "element": "node", "id": 9099963727, "name": "New Vision Hospital, Karikottkuzhi", "amenity": "clinic", "healthcare": "clinic", "operator": null, "addr:full": null }, "geometry": { "type": "Point", "coordinates": [ 77.154399, 8.4749589 ] } },
{ "type": "Feature", "properties": { "element": "node", "id": 9192942072, "name": "Government Ayurveda Dispensary, Pullampara", "amenity": null, "healthcare": "alternative", "operator": "Government", "addr:full": null }, "geometry": { "type": "Point", "coordinates": [ 76.932368, 8.6982143 ] } },
{ "type": "Feature", "properties": { "element": "node", "id": 9244009170, "name": "doctor clinic", "amenity": "clinic", "healthcare": "clinic", "operator": null, "addr:full": null }, "geometry": { "type": "Point", "coordinates": [ 77.0493798, 8.4286612 ] } },
{ "type": "Feature", "properties": { "element": "node", "id": 9245312649, "name": "CVC Eye Hospital", "amenity": "clinic", "healthcare": "clinic", "operator": null, "addr:full": null }, "geometry": { "type": "Point", "coordinates": [ 77.0437121, 8.4269043 ] } },
{ "type": "Feature", "properties": { "element": "node", "id": 9245336809, "name": "PNM Hospital", "amenity": "clinic", "healthcare": "clinic", "operator": null, "addr:full": null }, "geometry": { "type": "Point", "coordinates": [ 77.0459195, 8.4258896 ] } },
{ "type": "Feature", "properties": { "element": "node", "id": 9292039920, "name": "Anganwadi", "amenity": "childcare", "healthcare": null, "operator": "Government", "addr:full": null }, "geometry": { "type": "Point", "coordinates": [ 76.8138634, 8.7189783 ] } },
{ "type": "Feature", "properties": { "element": "node", "id": 9292151210, "name": "Homeo Sub Centre, Kochuvilla", "amenity": "clinic", "healthcare": "clinic", "operator": "Government", "addr:full": null }, "geometry": { "type": "Point", "coordinates": [ 76.8123147, 8.7270018 ] } },
{ "type": "Feature", "properties": { "element": "node", "id": 9292685184, "name": "Ration Shop, Kacheri", "amenity": null, "healthcare": null, "operator": "Government", "addr:full": null }, "geometry": { "type": "Point", "coordinates": [ 76.8177256, 8.6963704 ] } },
{ "type": "Feature", "properties": { "element": "node", "id": 9299654172, "name": "Anganwadi", "amenity": "childcare", "healthcare": null, "operator": "Government", "addr:full": null }, "geometry": { "type": "Point", "coordinates": [ 76.8379181, 8.6923214 ] } },
{ "type": "Feature", "properties": { "element": "node", "id": 9345239301, "name": "Government Veterinary Hospital . Attingal", "amenity": "veterinary", "healthcare": null, "operator": "Government", "addr:full": null }, "geometry": { "type": "Point", "coordinates": [ 76.8072154, 8.6923513 ] } },
{ "type": "Feature", "properties": { "element": "node", "id": 9489300281, "name": "Homeo Clinic,Paliyodu", "amenity": "clinic", "healthcare": "clinic", "operator": null, "addr:full": null }, "geometry": { "type": "Point", "coordinates": [ 77.1513071, 8.428365 ] } },
{ "type": "Feature", "properties": { "element": "node", "id": 10081809113, "name": "Medicare", "amenity": null, "healthcare": "clinic", "operator": null, "addr:full": null }, "geometry": { "type": "Point", "coordinates": [ 77.0233183, 8.5014891 ] } },
{ "type": "Feature", "properties": { "element": "node", "id": 10111018009, "name": "Dr.Pradeep Kidangoor - Kidangoor Gopalakrishna Pillai Children's Medical Center", "amenity": "clinic", "healthcare": "clinic", "operator": null, "addr:full": null }, "geometry": { "type": "Point", "coordinates": [ 76.9768831, 8.5118723 ] } },
{ "type": "Feature", "properties": { "element": "node", "id": 11046110905, "name": "Dr. Archa Raj", "amenity": "doctors", "healthcare": null, "operator": null, "addr:full": null }, "geometry": { "type": "Point", "coordinates": [ 76.8737546, 8.5641485 ] } },
{ "type": "Feature", "properties": { "element": "node", "id": 11052398307, "name": null, "amenity": "doctors", "healthcare": null, "operator": null, "addr:full": null }, "geometry": { "type": "Point", "coordinates": [ 76.8975657, 8.6026986 ] } },
{ "type": "Feature", "properties": { "element": "node", "id": 11115694463, "name": "SMV Medicals and Ayurvedha clinic", "amenity": "clinic", "healthcare": "clinic", "operator": null, "addr:full": null }, "geometry": { "type": "Point", "coordinates": [ 77.1633461, 8.3917169 ] } },
{ "type": "Feature", "properties": { "element": "node", "id": 11821919117, "name": "Dr. Ranjith Unnikrishnan", "amenity": "clinic", "healthcare": "clinic", "operator": "Novosalus Technology", "addr:full": null }, "geometry": { "type": "Point", "coordinates": [ 76.9089388, 8.5139505 ] } },
{ "type": "Feature", "properties": { "element": "node", "id": 12157473235, "name": "Aushadi", "amenity": "clinic", "healthcare": "clinic", "operator": null, "addr:full": null }, "geometry": { "type": "Point", "coordinates": [ 76.9130818, 8.6060119 ] } },
{ "type": "Feature", "properties": { "element": "node", "id": 12157488428, "name": null, "amenity": "clinic", "healthcare": "clinic", "operator": null, "addr:full": null }, "geometry": { "type": "Point", "coordinates": [ 76.9129416, 8.6060532 ] } },
{ "type": "Feature", "properties": { "element": "node", "id": 12809608772, "name": "Kamalaravi Clinic", "amenity": "clinic", "healthcare": "clinic", "operator": null, "addr:full": null }, "geometry": { "type": "Point", "coordinates": [ 77.0296905, 8.4329786 ] } },
{ "type": "Feature", "properties": { "element": "node", "id": 13017913646, "name": "Raj Bhavan Dispensary Thiruvananthapuram", "amenity": "clinic", "healthcare": null, "operator": null, "addr:full": null }, "geometry": { "type": "Point", "coordinates": [ 76.9632719, 8.5157878 ] } },
{ "type": "Feature", "properties": { "element": "node", "id": 13030965435, "name": "MLA Hostel Health Clinic Thiruvananthapuram", "amenity": "clinic", "healthcare": null, "operator": null, "addr:full": null }, "geometry": { "type": "Point", "coordinates": [ 76.9490442, 8.5041187 ] } },
{ "type": "Feature", "properties": { "element": "node", "id": 13565921712, "name": "GVR MEDICAL AND DIABETES CENTRE", "amenity": "clinic", "healthcare": "clinic", "operator": "PROF.Sumesh Raj.MD FRCP D.DIAB", "addr:full": null }, "geometry": { "type": "Point", "coordinates": [ 76.9316182, 8.5177037 ] } }
]
}
